,brewery_id,breweries,address1,address2,city,STATE,code,country,phone,website,filepath,descript,last_mod,coordinates,id,abv,name,state
0,21,AleSmith Brewing,9368 Cabot Drive,,San Diego,California,92126,United States,1-858-549-9888,http://alesmith.com/,,,2010-07-22T16:00:20-04:00,"32.892, -117.144",384,10.0,Grand Cru 2006,CA
1,21,AleSmith Brewing,9368 Cabot Drive,,San Diego,California,92126,United States,1-858-549-9888,http://alesmith.com/,,,2010-07-22T16:00:20-04:00,"32.892, -117.144",811,9.5,Wee Heavy,CA
2,21,AleSmith Brewing,9368 Cabot Drive,,San Diego,California,92126,United States,1-858-549-9888,http://alesmith.com/,,,2010-07-22T16:00:20-04:00,"32.892, -117.144",901,5.0,X Extra Pale Ale,CA
3,21,AleSmith Brewing,9368 Cabot Drive,,San Diego,California,92126,United States,1-858-549-9888,http://alesmith.com/,,,2010-07-22T16:00:20-04:00,"32.892, -117.144",923,12.0,Speedway Stout,CA
6,122,Big Sky Brewing,5417 Trumpeter Way,,Missoula,Montana,59808,United States,1-800-559-2774,,,,2010-07-22T16:00:20-04:00,"46.9223, -114.073",172,0.0,Crystal Ale,MT
7,133,BJ's Restaurant and Brewery,600 Brea Mall,,Brea,California,,United States,714-990-2095,http://www.bjsrestaurants.com/beer.aspx,,,2010-07-22T16:00:20-04:00,"33.9132, -117.889",313,8.5,Tatonka Stout,CA
8,133,BJ's Restaurant and Brewery,600 Brea Mall,,Brea,California,,United States,714-990-2095,http://www.bjsrestaurants.com/beer.aspx,,,2010-07-22T16:00:20-04:00,"33.9132, -117.889",314,6.4,P.M. Porter,CA
9,133,BJ's Restaurant and Brewery,600 Brea Mall,,Brea,California,,United States,714-990-2095,http://www.bjsrestaurants.com/beer.aspx,,,2010-07-22T16:00:20-04:00,"33.9132, -117.889",315,7.3,Jeremiah Red,CA
10,133,BJ's Restaurant and Brewery,600 Brea Mall,,Brea,California,,United States,714-990-2095,http://www.bjsrestaurants.com/beer.aspx,,,2010-07-22T16:00:20-04:00,"33.9132, -117.889",316,5.7,Piranha Pale Ale,CA
11,133,BJ's Restaurant and Brewery,600 Brea Mall,,Brea,California,,United States,714-990-2095,http://www.bjsrestaurants.com/beer.aspx,,,2010-07-22T16:00:20-04:00,"33.9132, -117.889",317,4.9,Harvest Hefeweizen,CA
12,133,BJ's Restaurant and Brewery,600 Brea Mall,,Brea,California,,United States,714-990-2095,http://www.bjsrestaurants.com/beer.aspx,,,2010-07-22T16:00:20-04:00,"33.9132, -117.889",318,4.7,Brewhouse Blonde,CA
13,133,BJ's Restaurant and Brewery,600 Brea Mall,,Brea,California,,United States,714-990-2095,http://www.bjsrestaurants.com/beer.aspx,,,2010-07-22T16:00:20-04:00,"33.9132, -117.889",319,5.9,Nutty Brewnette,CA
27,445,Diamond Knot Brewery & Alehouse,621 Front Street,,Mukilteo,Washington,98275,United States,1-425-355-4488,http://www.diamondknot.com/,,,2010-07-22T16:00:20-04:00,"47.9485, -122.305",720,0.0,Icebreaker Barley Wine,WA
28,445,Diamond Knot Brewery & Alehouse,621 Front Street,,Mukilteo,Washington,98275,United States,1-425-355-4488,http://www.diamondknot.com/,,,2010-07-22T16:00:20-04:00,"47.9485, -122.305",721,7.4,Industrial IPA,WA
29,445,Diamond Knot Brewery & Alehouse,621 Front Street,,Mukilteo,Washington,98275,United States,1-425-355-4488,http://www.diamondknot.com/,,,2010-07-22T16:00:20-04:00,"47.9485, -122.305",722,6.2,IPA,WA
30,445,Diamond Knot Brewery & Alehouse,621 Front Street,,Mukilteo,Washington,98275,United States,1-425-355-4488,http://www.diamondknot.com/,,,2010-07-22T16:00:20-04:00,"47.9485, -122.305",723,5.6,Possession Porter,WA
31,445,Diamond Knot Brewery & Alehouse,621 Front Street,,Mukilteo,Washington,98275,United States,1-425-355-4488,http://www.diamondknot.com/,,,2010-07-22T16:00:20-04:00,"47.9485, -122.305",724,4.8,Steamer Glide Stout,WA
32,445,Diamond Knot Brewery & Alehouse,621 Front Street,,Mukilteo,Washington,98275,United States,1-425-355-4488,http://www.diamondknot.com/,,,2010-07-22T16:00:20-04:00,"47.9485, -122.305",725,0.0,E.S.B.,WA
33,445,Diamond Knot Brewery & Alehouse,621 Front Street,,Mukilteo,Washington,98275,United States,1-425-355-4488,http://www.diamondknot.com/,,,2010-07-22T16:00:20-04:00,"47.9485, -122.305",726,5.6,Brown Ale,WA
34,445,Diamond Knot Brewery & Alehouse,621 Front Street,,Mukilteo,Washington,98275,United States,1-425-355-4488,http://www.diamondknot.com/,,,2010-07-22T16:00:20-04:00,"47.9485, -122.305",727,5.2,Golden Ale,WA
35,445,Diamond Knot Brewery & Alehouse,621 Front Street,,Mukilteo,Washington,98275,United States,1-425-355-4488,http://www.diamondknot.com/,,,2010-07-22T16:00:20-04:00,"47.9485, -122.305",728,5.8,Hefe-Weizen,WA
36,445,Diamond Knot Brewery & Alehouse,621 Front Street,,Mukilteo,Washington,98275,United States,1-425-355-4488,http://www.diamondknot.com/,,,2010-07-22T16:00:20-04:00,"47.9485, -122.305",729,4.3,Lighthouse Ale,WA
37,459,Dogfish Head Craft Brewery,6 Cannery Village Center,,Milton,Delaware,19968,United States,1-888-834-3474,http://www.dogfish.com,,,2010-07-22T16:00:20-04:00,"38.7683, -75.3107",818,15.04,Olde School Barleywine,DE
38,504,Engine House #9,611 North Pine,,Tacoma,Washington,98406,United States,1-253-272-3435,,,,2010-07-22T16:00:20-04:00,"47.256, -122.473",748,0.0,Barleywine,WA
39,504,Engine House #9,611 North Pine,,Tacoma,Washington,98406,United States,1-253-272-3435,,,,2010-07-22T16:00:20-04:00,"47.256, -122.473",749,0.0,Imperial Pale,WA
40,504,Engine House #9,611 North Pine,,Tacoma,Washington,98406,United States,1-253-272-3435,,,,2010-07-22T16:00:20-04:00,"47.256, -122.473",750,0.0,Spring Bock,WA
41,504,Engine House #9,611 North Pine,,Tacoma,Washington,98406,United States,1-253-272-3435,,,,2010-07-22T16:00:20-04:00,"47.256, -122.473",751,0.0,Irish Stout,WA
42,504,Engine House #9,611 North Pine,,Tacoma,Washington,98406,United States,1-253-272-3435,,,,2010-07-22T16:00:20-04:00,"47.256, -122.473",752,6.6,India Pale Ale,WA
43,504,Engine House #9,611 North Pine,,Tacoma,Washington,98406,United States,1-253-272-3435,,,,2010-07-22T16:00:20-04:00,"47.256, -122.473",753,5.9,Porter,WA
44,504,Engine House #9,611 North Pine,,Tacoma,Washington,98406,United States,1-253-272-3435,,,,2010-07-22T16:00:20-04:00,"47.256, -122.473",754,0.0,Firehouse Red,WA
45,504,Engine House #9,611 North Pine,,Tacoma,Washington,98406,United States,1-253-272-3435,,,,2010-07-22T16:00:20-04:00,"47.256, -122.473",755,5.1,Tacoma Brew,WA
46,504,Engine House #9,611 North Pine,,Tacoma,Washington,98406,United States,1-253-272-3435,,,,2010-07-22T16:00:20-04:00,"47.256, -122.473",756,4.3,Hefeweizen,WA
47,504,Engine House #9,611 North Pine,,Tacoma,Washington,98406,United States,1-253-272-3435,,,,2010-07-22T16:00:20-04:00,"47.256, -122.473",757,4.1,Belgian White,WA
48,523,Firehouse Grill & Brewery,111 South Murphy Avenue,,Sunnyvale,California,94086,United States,1-408-773-9500,,,,2010-07-22T16:00:20-04:00,"37.3775, -122.03",308,0.0,Pale Ale,CA
49,523,Firehouse Grill & Brewery,111 South Murphy Avenue,,Sunnyvale,California,94086,United States,1-408-773-9500,,,,2010-07-22T16:00:20-04:00,"37.3775, -122.03",309,0.0,Red Ale,CA
50,523,Firehouse Grill & Brewery,111 South Murphy Avenue,,Sunnyvale,California,94086,United States,1-408-773-9500,,,,2010-07-22T16:00:20-04:00,"37.3775, -122.03",310,0.0,Hefeweizen,CA
51,523,Firehouse Grill & Brewery,111 South Murphy Avenue,,Sunnyvale,California,94086,United States,1-408-773-9500,,,,2010-07-22T16:00:20-04:00,"37.3775, -122.03",311,0.0,Bitter,CA
52,523,Firehouse Grill & Brewery,111 South Murphy Avenue,,Sunnyvale,California,94086,United States,1-408-773-9500,,,,2010-07-22T16:00:20-04:00,"37.3775, -122.03",312,0.0,Double IPA,CA
56,677,HopTown Brewing,3015-D Hopyard Road,,Pleasanton,California,94588,United States,1-925-426-1450,,,,2010-07-22T16:00:20-04:00,"37.677, -121.898",296,0.0,Paint the Town Red,CA
57,677,HopTown Brewing,3015-D Hopyard Road,,Pleasanton,California,94588,United States,1-925-426-1450,,,,2010-07-22T16:00:20-04:00,"37.677, -121.898",297,0.0,Golden Ale,CA
62,765,Lagunitas Brewing Company,1280 North McDowell Boulevard,,Petaluma,California,94954,United States,1-707-769-4495,http://www.lagunitas.com/,,,2010-07-22T16:00:20-04:00,"38.2724, -122.662",201,9.28,Undercover Investigation Shut-Down Ale,CA
64,823,Manayunk Brewery and Restaurant,4120 Main Street,,Philadelphia,Pennsylvania,19127,United States,1-215-482-8220,http://www.manayunkbrewery.com/,,,2010-07-22T16:00:20-04:00,"40.0236, -75.2202",942,6.0,Schuylkill Punch,PA
65,823,Manayunk Brewery and Restaurant,4120 Main Street,,Philadelphia,Pennsylvania,19127,United States,1-215-482-8220,http://www.manayunkbrewery.com/,,,2010-07-22T16:00:20-04:00,"40.0236, -75.2202",943,12.7,Nokdechiloff,PA
66,823,Manayunk Brewery and Restaurant,4120 Main Street,,Philadelphia,Pennsylvania,19127,United States,1-215-482-8220,http://www.manayunkbrewery.com/,,,2010-07-22T16:00:20-04:00,"40.0236, -75.2202",944,8.0,California Dreaming,PA
67,823,Manayunk Brewery and Restaurant,4120 Main Street,,Philadelphia,Pennsylvania,19127,United States,1-215-482-8220,http://www.manayunkbrewery.com/,,,2010-07-22T16:00:20-04:00,"40.0236, -75.2202",945,6.4,Manayunk Lager,PA
68,823,Manayunk Brewery and Restaurant,4120 Main Street,,Philadelphia,Pennsylvania,19127,United States,1-215-482-8220,http://www.manayunkbrewery.com/,,,2010-07-22T16:00:20-04:00,"40.0236, -75.2202",946,5.1,Brilliant Barstool,PA
69,823,Manayunk Brewery and Restaurant,4120 Main Street,,Philadelphia,Pennsylvania,19127,United States,1-215-482-8220,http://www.manayunkbrewery.com/,,,2010-07-22T16:00:20-04:00,"40.0236, -75.2202",947,5.3,Krooks Mill,PA
70,823,Manayunk Brewery and Restaurant,4120 Main Street,,Philadelphia,Pennsylvania,19127,United States,1-215-482-8220,http://www.manayunkbrewery.com/,,,2010-07-22T16:00:20-04:00,"40.0236, -75.2202",948,5.0,Summer Gold,PA
71,823,Manayunk Brewery and Restaurant,4120 Main Street,,Philadelphia,Pennsylvania,19127,United States,1-215-482-8220,http://www.manayunkbrewery.com/,,,2010-07-22T16:00:20-04:00,"40.0236, -75.2202",949,4.7,Bohemian Blonde,PA
72,901,Nebraska Brewing Company,7474 Towne Center Parkway #101,,Papillion,Nebraska,68046,United States,1-402-934-7100,,,,2010-07-22T16:00:20-04:00,"41.1339, -96.0307",46,0.0,Porter,NE
73,901,Nebraska Brewing Company,7474 Towne Center Parkway #101,,Papillion,Nebraska,68046,United States,1-402-934-7100,,,,2010-07-22T16:00:20-04:00,"41.1339, -96.0307",47,0.0,Cardinal Pale Ale,NE
74,901,Nebraska Brewing Company,7474 Towne Center Parkway #101,,Papillion,Nebraska,68046,United States,1-402-934-7100,,,,2010-07-22T16:00:20-04:00,"41.1339, -96.0307",53,0.0,Red Sled Winter Ale,NE
75,901,Nebraska Brewing Company,7474 Towne Center Parkway #101,,Papillion,Nebraska,68046,United States,1-402-934-7100,,,,2010-07-22T16:00:20-04:00,"41.1339, -96.0307",96,0.0,Brunette Nut Brown Ale,NE
76,901,Nebraska Brewing Company,7474 Towne Center Parkway #101,,Papillion,Nebraska,68046,United States,1-402-934-7100,,,,2010-07-22T16:00:20-04:00,"41.1339, -96.0307",97,0.0,Irish Red,NE
77,901,Nebraska Brewing Company,7474 Towne Center Parkway #101,,Papillion,Nebraska,68046,United States,1-402-934-7100,,,,2010-07-22T16:00:20-04:00,"41.1339, -96.0307",98,0.0,Belgian Wit,NE
78,901,Nebraska Brewing Company,7474 Towne Center Parkway #101,,Papillion,Nebraska,68046,United States,1-402-934-7100,,,,2010-07-22T16:00:20-04:00,"41.1339, -96.0307",99,0.0,EOS Hefeweizen,NE
79,901,Nebraska Brewing Company,7474 Towne Center Parkway #101,,Papillion,Nebraska,68046,United States,1-402-934-7100,,,,2010-07-22T16:00:20-04:00,"41.1339, -96.0307",100,0.0,India Pale Ale,NE
80,901,Nebraska Brewing Company,7474 Towne Center Parkway #101,,Papillion,Nebraska,68046,United States,1-402-934-7100,,,,2010-07-22T16:00:20-04:00,"37.244, -107.879",46,0.0,Porter,NE
81,901,Nebraska Brewing Company,7474 Towne Center Parkway #101,,Papillion,Nebraska,68046,United States,1-402-934-7100,,,,2010-07-22T16:00:20-04:00,"37.244, -107.879",47,0.0,Cardinal Pale Ale,NE
82,901,Nebraska Brewing Company,7474 Towne Center Parkway #101,,Papillion,Nebraska,68046,United States,1-402-934-7100,,,,2010-07-22T16:00:20-04:00,"37.244, -107.879",53,0.0,Red Sled Winter Ale,NE
83,901,Nebraska Brewing Company,7474 Towne Center Parkway #101,,Papillion,Nebraska,68046,United States,1-402-934-7100,,,,2010-07-22T16:00:20-04:00,"37.244, -107.879",96,0.0,Brunette Nut Brown Ale,NE
84,901,Nebraska Brewing Company,7474 Towne Center Parkway #101,,Papillion,Nebraska,68046,United States,1-402-934-7100,,,,2010-07-22T16:00:20-04:00,"37.244, -107.879",97,0.0,Irish Red,NE
85,901,Nebraska Brewing Company,7474 Towne Center Parkway #101,,Papillion,Nebraska,68046,United States,1-402-934-7100,,,,2010-07-22T16:00:20-04:00,"37.244, -107.879",98,0.0,Belgian Wit,NE
86,901,Nebraska Brewing Company,7474 Towne Center Parkway #101,,Papillion,Nebraska,68046,United States,1-402-934-7100,,,,2010-07-22T16:00:20-04:00,"37.244, -107.879",99,0.0,EOS Hefeweizen,NE
87,901,Nebraska Brewing Company,7474 Towne Center Parkway #101,,Papillion,Nebraska,68046,United States,1-402-934-7100,,,,2010-07-22T16:00:20-04:00,"37.244, -107.879",100,0.0,India Pale Ale,NE
93,1126,Seabright Brewery,519 Seabright Avenue #107,,Santa Cruz,California,95062,United States,1-408-426-2739,,,,2010-07-22T16:00:20-04:00,"36.9676, -122.008",267,0.0,Leroy Barleywine,CA
94,1126,Seabright Brewery,519 Seabright Avenue #107,,Santa Cruz,California,95062,United States,1-408-426-2739,,,,2010-07-22T16:00:20-04:00,"36.9676, -122.008",268,6.0,Oatmeal Stout,CA
95,1126,Seabright Brewery,519 Seabright Avenue #107,,Santa Cruz,California,95062,United States,1-408-426-2739,,,,2010-07-22T16:00:20-04:00,"36.9676, -122.008",269,5.0,Amber,CA
96,1126,Seabright Brewery,519 Seabright Avenue #107,,Santa Cruz,California,95062,United States,1-408-426-2739,,,,2010-07-22T16:00:20-04:00,"36.9676, -122.008",270,0.0,Blur IPA,CA
97,1126,Seabright Brewery,519 Seabright Avenue #107,,Santa Cruz,California,95062,United States,1-408-426-2739,,,,2010-07-22T16:00:20-04:00,"36.9676, -122.008",271,5.0,Pelican Pale,CA
98,1126,Seabright Brewery,519 Seabright Avenue #107,,Santa Cruz,California,95062,United States,1-408-426-2739,,,,2010-07-22T16:00:20-04:00,"36.9676, -122.008",272,0.0,Brew Ribbon,CA
99,1177,Speakeasy Ales and Lagers,1195-A Evans Avenue,,San Francisco,California,94124,United States,1-415-642-3371,,,,2010-07-22T16:00:20-04:00,"37.7387, -122.381",398,10.2,Old Godfather,CA
100,1177,Speakeasy Ales and Lagers,1195-A Evans Avenue,,San Francisco,California,94124,United States,1-415-642-3371,,,,2010-07-22T16:00:20-04:00,"37.7387, -122.381",808,9.5,Double Daddy,CA
101,1177,Speakeasy Ales and Lagers,1195-A Evans Avenue,,San Francisco,California,94124,United States,1-415-642-3371,,,,2010-07-22T16:00:20-04:00,"37.7387, -122.381",900,5.5,Untouchable Pale Ale,CA
102,1177,Speakeasy Ales and Lagers,1195-A Evans Avenue,,San Francisco,California,94124,United States,1-415-642-3371,,,,2010-07-22T16:00:20-04:00,"37.7387, -122.381",917,6.5,Big Daddy IPA,CA
103,1179,Spoetzl Brewery,603 East Brewery Street,,Shiner,Texas,77984,United States,1-800-574-4637,http://www.shiner.com,,,2010-07-22T16:00:20-04:00,"29.426, -97.1607",236,5.4,Shiner Hefeweizen,TX
104,89,Bayern Brewing,1507 Montana Street,,Missoula,Montana,59801,United States,1-406-721-1482,,,,2010-07-22T16:00:20-04:00,"46.8726, -114.02",898,0.0,Hefeweizen,MT
105,89,Bayern Brewing,1507 Montana Street,,Missoula,Montana,59801,United States,1-406-721-1482,,,,2010-07-22T16:00:20-04:00,"46.8726, -114.02",899,0.0,Dancing Trout Ale,MT
106,123,Big Time Brewing,4133 University Way NE,,Seattle,Washington,98105,United States,1-206-545-4509,http://www.bigtimebrewery.com/,,"Big Time's brewery is a 14 barrel JV Northwest system consisting of a gas fired brew kettle, an infusion mash tun with mixer, a hot liquor back, a wort cooler, (5) 14 barrel fermenters, a diatomaceous earth filter, a bright beer tank, and (12) 7 bbl serving tanks.  We sell most of our beer at the pub but do wholesale a limited number of kegs to a few Seattle area taverns. We currently brew approximately 1,500 barrels of beer per year",2010-07-22T16:00:20-04:00,"47.6576, -122.313",673,8.0,Slam Dunkelweizen,WA
107,123,Big Time Brewing,4133 University Way NE,,Seattle,Washington,98105,United States,1-206-545-4509,http://www.bigtimebrewery.com/,,"Big Time's brewery is a 14 barrel JV Northwest system consisting of a gas fired brew kettle, an infusion mash tun with mixer, a hot liquor back, a wort cooler, (5) 14 barrel fermenters, a diatomaceous earth filter, a bright beer tank, and (12) 7 bbl serving tanks.  We sell most of our beer at the pub but do wholesale a limited number of kegs to a few Seattle area taverns. We currently brew approximately 1,500 barrels of beer per year",2010-07-22T16:00:20-04:00,"47.6576, -122.313",674,0.0,Trombipulator,WA
108,123,Big Time Brewing,4133 University Way NE,,Seattle,Washington,98105,United States,1-206-545-4509,http://www.bigtimebrewery.com/,,"Big Time's brewery is a 14 barrel JV Northwest system consisting of a gas fired brew kettle, an infusion mash tun with mixer, a hot liquor back, a wort cooler, (5) 14 barrel fermenters, a diatomaceous earth filter, a bright beer tank, and (12) 7 bbl serving tanks.  We sell most of our beer at the pub but do wholesale a limited number of kegs to a few Seattle area taverns. We currently brew approximately 1,500 barrels of beer per year",2010-07-22T16:00:20-04:00,"47.6576, -122.313",675,0.0,Faux Paddy Irish Ale,WA
109,123,Big Time Brewing,4133 University Way NE,,Seattle,Washington,98105,United States,1-206-545-4509,http://www.bigtimebrewery.com/,,"Big Time's brewery is a 14 barrel JV Northwest system consisting of a gas fired brew kettle, an infusion mash tun with mixer, a hot liquor back, a wort cooler, (5) 14 barrel fermenters, a diatomaceous earth filter, a bright beer tank, and (12) 7 bbl serving tanks.  We sell most of our beer at the pub but do wholesale a limited number of kegs to a few Seattle area taverns. We currently brew approximately 1,500 barrels of beer per year",2010-07-22T16:00:20-04:00,"47.6576, -122.313",676,0.0,Black Mulligan Dublin Stout,WA
110,123,Big Time Brewing,4133 University Way NE,,Seattle,Washington,98105,United States,1-206-545-4509,http://www.bigtimebrewery.com/,,"Big Time's brewery is a 14 barrel JV Northwest system consisting of a gas fired brew kettle, an infusion mash tun with mixer, a hot liquor back, a wort cooler, (5) 14 barrel fermenters, a diatomaceous earth filter, a bright beer tank, and (12) 7 bbl serving tanks.  We sell most of our beer at the pub but do wholesale a limited number of kegs to a few Seattle area taverns. We currently brew approximately 1,500 barrels of beer per year",2010-07-22T16:00:20-04:00,"47.6576, -122.313",677,0.0,Coal Creek Porter,WA
111,123,Big Time Brewing,4133 University Way NE,,Seattle,Washington,98105,United States,1-206-545-4509,http://www.bigtimebrewery.com/,,"Big Time's brewery is a 14 barrel JV Northwest system consisting of a gas fired brew kettle, an infusion mash tun with mixer, a hot liquor back, a wort cooler, (5) 14 barrel fermenters, a diatomaceous earth filter, a bright beer tank, and (12) 7 bbl serving tanks.  We sell most of our beer at the pub but do wholesale a limited number of kegs to a few Seattle area taverns. We currently brew approximately 1,500 barrels of beer per year",2010-07-22T16:00:20-04:00,"47.6576, -122.313",678,0.0,Atlas Amber Ale,WA
112,123,Big Time Brewing,4133 University Way NE,,Seattle,Washington,98105,United States,1-206-545-4509,http://www.bigtimebrewery.com/,,"Big Time's brewery is a 14 barrel JV Northwest system consisting of a gas fired brew kettle, an infusion mash tun with mixer, a hot liquor back, a wort cooler, (5) 14 barrel fermenters, a diatomaceous earth filter, a bright beer tank, and (12) 7 bbl serving tanks.  We sell most of our beer at the pub but do wholesale a limited number of kegs to a few Seattle area taverns. We currently brew approximately 1,500 barrels of beer per year",2010-07-22T16:00:20-04:00,"47.6576, -122.313",679,0.0,Prime Time Pale Ale,WA
113,123,Big Time Brewing,4133 University Way NE,,Seattle,Washington,98105,United States,1-206-545-4509,http://www.bigtimebrewery.com/,,"Big Time's brewery is a 14 barrel JV Northwest system consisting of a gas fired brew kettle, an infusion mash tun with mixer, a hot liquor back, a wort cooler, (5) 14 barrel fermenters, a diatomaceous earth filter, a bright beer tank, and (12) 7 bbl serving tanks.  We sell most of our beer at the pub but do wholesale a limited number of kegs to a few Seattle area taverns. We currently brew approximately 1,500 barrels of beer per year",2010-07-22T16:00:20-04:00,"47.6576, -122.313",680,0.0,Snow Melt Nitrogen Pale,WA
114,123,Big Time Brewing,4133 University Way NE,,Seattle,Washington,98105,United States,1-206-545-4509,http://www.bigtimebrewery.com/,,"Big Time's brewery is a 14 barrel JV Northwest system consisting of a gas fired brew kettle, an infusion mash tun with mixer, a hot liquor back, a wort cooler, (5) 14 barrel fermenters, a diatomaceous earth filter, a bright beer tank, and (12) 7 bbl serving tanks.  We sell most of our beer at the pub but do wholesale a limited number of kegs to a few Seattle area taverns. We currently brew approximately 1,500 barrels of beer per year",2010-07-22T16:00:20-04:00,"47.6576, -122.313",681,0.0,Old Rip Oatmeal Stout,WA
115,123,Big Time Brewing,4133 University Way NE,,Seattle,Washington,98105,United States,1-206-545-4509,http://www.bigtimebrewery.com/,,"Big Time's brewery is a 14 barrel JV Northwest system consisting of a gas fired brew kettle, an infusion mash tun with mixer, a hot liquor back, a wort cooler, (5) 14 barrel fermenters, a diatomaceous earth filter, a bright beer tank, and (12) 7 bbl serving tanks.  We sell most of our beer at the pub but do wholesale a limited number of kegs to a few Seattle area taverns. We currently brew approximately 1,500 barrels of beer per year",2010-07-22T16:00:20-04:00,"47.6576, -122.313",682,0.0,Scarlet Fire IPA,WA
116,130,Bison Brewing,2598 Telegraph Avenue,,Berkeley,California,94704,United States,1-510-841-7734,,,,2010-07-22T16:00:20-04:00,"37.8634, -122.259",122,6.8,Organic Gingerbread Ale,CA
117,130,Bison Brewing,2598 Telegraph Avenue,,Berkeley,California,94704,United States,1-510-841-7734,,,,2010-07-22T16:00:20-04:00,"37.8634, -122.259",132,9.5,Organic Barley Wine Ale 2005,CA
118,130,Bison Brewing,2598 Telegraph Avenue,,Berkeley,California,94704,United States,1-510-841-7734,,,,2010-07-22T16:00:20-04:00,"37.8634, -122.259",412,0.0,Organic Belgian Ale,CA
132,497,Elysian Brewing - TangleTown,2106 North 55th Street,,Seattle,Washington,98103,United States,1-206-547-5929,,,,2010-07-22T16:00:20-04:00,"47.6688, -122.334",685,3.8,Warminster Special Bitter,WA
133,497,Elysian Brewing - TangleTown,2106 North 55th Street,,Seattle,Washington,98103,United States,1-206-547-5929,,,,2010-07-22T16:00:20-04:00,"47.6688, -122.334",686,6.0,AK-47 Malt Liquor,WA
134,497,Elysian Brewing - TangleTown,2106 North 55th Street,,Seattle,Washington,98103,United States,1-206-547-5929,,,,2010-07-22T16:00:20-04:00,"47.6688, -122.334",687,4.0,Foster Child Australian Lager,WA
137,907,New Glarus Brewing Company,2400 State Highway 69,,New Glarus,Wisconsin,53574,United States,608-527-5850,http://www.newglarusbrewing.com/,,"The brewery is run by an enthusiastic couple, Daniel & Deb Carey, who have successfully combined business management and brewing professionalism. Our philosophy is based on individuality, cooperation and the employment of 100% natural ingredients to produce world -class, handcrafted beers for our friends in Wisconsin. Cheers!*  *From the New Glarus Brewing web site",2010-07-22T16:00:20-04:00,"42.8171, -89.6306",837,0.0,Smoked Rye Bock,WI
138,1003,Platte Valley Brewing,14 East Railroad,,Kearney,Nebraska,68847,United States,1-308-237-0751,,,,2010-07-22T16:00:20-04:00,"40.6954, -99.0812",860,0.0,Stout,NE
139,1011,Porterhouse Restaurant and Brewpub,5775 Lower Mountain Road,,Lahaska,Pennsylvania,18931,United States,1-215-794-9373,,,,2010-07-22T16:00:20-04:00,"40.3341, -75.012",985,0.0,Irish Stout,PA
140,1011,Porterhouse Restaurant and Brewpub,5775 Lower Mountain Road,,Lahaska,Pennsylvania,18931,United States,1-215-794-9373,,,,2010-07-22T16:00:20-04:00,"40.3341, -75.012",986,0.0,Hop Hazard,PA
141,1011,Porterhouse Restaurant and Brewpub,5775 Lower Mountain Road,,Lahaska,Pennsylvania,18931,United States,1-215-794-9373,,,,2010-07-22T16:00:20-04:00,"40.3341, -75.012",987,0.0,Indian Red Ale,PA
142,1011,Porterhouse Restaurant and Brewpub,5775 Lower Mountain Road,,Lahaska,Pennsylvania,18931,United States,1-215-794-9373,,,,2010-07-22T16:00:20-04:00,"40.3341, -75.012",988,0.0,Lager,PA
143,1011,Porterhouse Restaurant and Brewpub,5775 Lower Mountain Road,,Lahaska,Pennsylvania,18931,United States,1-215-794-9373,,,,2010-07-22T16:00:20-04:00,"40.3341, -75.012",989,0.0,Special Ale,PA
144,1047,Red Lodge Ales,417 North Broadway,,Red Lodge,Montana,59068,United States,1-406-446-4607,,,,2010-07-22T16:00:20-04:00,"45.1913, -109.247",87,0.0,Glacier Ale,MT
145,1047,Red Lodge Ales,417 North Broadway,,Red Lodge,Montana,59068,United States,1-406-446-4607,,,,2010-07-22T16:00:20-04:00,"45.1913, -109.247",88,0.0,Bent Nail IPA,MT
146,1103,Sand Creek Brewing Company,320 Pierce St,,Black River Falls,Wisconsin,54615,United States,(715) 284-7553,http://www.sandcreekbrewing.com/,,,2010-07-22T16:00:20-04:00,"44.2929, -90.8511",936,0.0,Pioneer Black River Red,WI
148,1220,Summit Brewing,910 Montreal Circle,,Saint Paul,Minnesota,55102,United States,1-651-265-7800,http://www.summitbrewing.com/,,,2010-07-22T16:00:20-04:00,"44.9139, -93.1396",26,5.9,Winter Ale,MN
149,137,Blackstone Restaurant & Brewery,1918 West End Avenue,,Nashville,Tennessee,37203,United States,1-615-327-9969,,,,2010-07-22T16:00:20-04:00,"36.152, -86.7989",814,0.0,Nut Brown Ale,TN
150,137,Blackstone Restaurant & Brewery,1918 West End Avenue,,Nashville,Tennessee,37203,United States,1-615-327-9969,,,,2010-07-22T16:00:20-04:00,"36.152, -86.7989",815,0.0,Chaser Pale,TN
161,483,Egan Brewing,,,De Pere,Wisconsin,,United States,,,,,2010-07-22T16:00:20-04:00,"44.4489, -88.0604",20,8.7,Cow Palace Scotch Ale 1998,WI
163,622,Hair of the Dog Brewing,4509 SE 23rd Avenue,,Portland,Oregon,97202,United States,1-503-232-6585,,,,2010-07-22T16:00:20-04:00,"45.4901, -122.643",134,7.0,Blue Dot Double India Pale Ale,OR
164,622,Hair of the Dog Brewing,4509 SE 23rd Avenue,,Portland,Oregon,97202,United States,1-503-232-6585,,,,2010-07-22T16:00:20-04:00,"45.4901, -122.643",810,10.0,Fred,OR
165,622,Hair of the Dog Brewing,4509 SE 23rd Avenue,,Portland,Oregon,97202,United States,1-503-232-6585,,,,2010-07-22T16:00:20-04:00,"45.4901, -122.643",869,10.0,Adam,OR
166,622,Hair of the Dog Brewing,4509 SE 23rd Avenue,,Portland,Oregon,97202,United States,1-503-232-6585,,,,2010-07-22T16:00:20-04:00,"45.4901, -122.643",870,7.5,Rose,OR
167,709,Jaipur Restaurant and Brewpub,10922 Elm Street,,Omaha,Nebraska,68144,United States,1-402-392-7331,,,,2010-07-22T16:00:20-04:00,"41.2328, -96.0825",812,0.0,Porter,NE
171,795,Little Apple Brewing,1110 Westloop Center,,Manhattan,Kansas,66502,United States,1-785-539-5500,,,,2010-07-22T16:00:20-04:00,"39.1836, -96.5717",339,0.0,Bovine Belgian Winter Ale,KS
172,795,Little Apple Brewing,1110 Westloop Center,,Manhattan,Kansas,66502,United States,1-785-539-5500,,,,2010-07-22T16:00:20-04:00,"39.1836, -96.5717",340,0.0,XX Black Angus Stout,KS
173,795,Little Apple Brewing,1110 Westloop Center,,Manhattan,Kansas,66502,United States,1-785-539-5500,,,,2010-07-22T16:00:20-04:00,"39.1836, -96.5717",341,0.0,Blarney Stone Stout,KS
174,795,Little Apple Brewing,1110 Westloop Center,,Manhattan,Kansas,66502,United States,1-785-539-5500,,,,2010-07-22T16:00:20-04:00,"39.1836, -96.5717",342,0.0,Bison Brown Ale,KS
175,795,Little Apple Brewing,1110 Westloop Center,,Manhattan,Kansas,66502,United States,1-785-539-5500,,,,2010-07-22T16:00:20-04:00,"39.1836, -96.5717",343,0.0,Prairie Pale,KS
176,795,Little Apple Brewing,1110 Westloop Center,,Manhattan,Kansas,66502,United States,1-785-539-5500,,,,2010-07-22T16:00:20-04:00,"39.1836, -96.5717",344,0.0,Wildcat Wheat,KS
184,1143,Siletz Roadhouse & Brewery,243 North Gaither Street,,Siletz,Oregon,97380,United States,1-541-444-2335,,,,2010-07-22T16:00:20-04:00,"44.722, -123.918",880,0.0,Spruce Ale,OR
185,1143,Siletz Roadhouse & Brewery,243 North Gaither Street,,Siletz,Oregon,97380,United States,1-541-444-2335,,,,2010-07-22T16:00:20-04:00,"44.722, -123.918",884,0.0,Oatmeal Cream Stout,OR
186,1143,Siletz Roadhouse & Brewery,243 North Gaither Street,,Siletz,Oregon,97380,United States,1-541-444-2335,,,,2010-07-22T16:00:20-04:00,"44.722, -123.918",915,0.0,Wooly Bully,OR
196,160,Boulder Beer Company,2880 Wilderness Place,,Boulder,Colorado,80301,United States,1-303-444-8448,http://boulderbeer.com/,,,2010-07-22T16:00:20-04:00,"40.0267, -105.248",57,8.0,Obovoid Empirical Stout,CO
197,160,Boulder Beer Company,2880 Wilderness Place,,Boulder,Colorado,80301,United States,1-303-444-8448,http://boulderbeer.com/,,,2010-07-22T16:00:20-04:00,"40.0267, -105.248",61,10.0,Killer Penguin,CO
198,160,Boulder Beer Company,2880 Wilderness Place,,Boulder,Colorado,80301,United States,1-303-444-8448,http://boulderbeer.com/,,,2010-07-22T16:00:20-04:00,"40.0267, -105.248",81,5.94,Never Summer Ale,CO
199,160,Boulder Beer Company,2880 Wilderness Place,,Boulder,Colorado,80301,United States,1-303-444-8448,http://boulderbeer.com/,,,2010-07-22T16:00:20-04:00,"40.0267, -105.248",153,6.5,Cold Hop,CO
200,160,Boulder Beer Company,2880 Wilderness Place,,Boulder,Colorado,80301,United States,1-303-444-8448,http://boulderbeer.com/,,,2010-07-22T16:00:20-04:00,"40.0267, -105.248",346,5.5,Planet Porter / Boulder Porter,CO
201,160,Boulder Beer Company,2880 Wilderness Place,,Boulder,Colorado,80301,United States,1-303-444-8448,http://boulderbeer.com/,,,2010-07-22T16:00:20-04:00,"40.0267, -105.248",382,0.0,GABF 25th Year Beer,CO
202,160,Boulder Beer Company,2880 Wilderness Place,,Boulder,Colorado,80301,United States,1-303-444-8448,http://boulderbeer.com/,,,2010-07-22T16:00:20-04:00,"40.0267, -105.248",799,6.8,MoJo India Pale Ale,CO
211,409,Crabby Larry's Brewpub Steak & Crab House,237 West Butler Avenue,,Chalfont,Pennsylvania,18914,United States,1-215-822-8788,http://www.crabbylarrys.com/,,,2010-07-22T16:00:20-04:00,"40.2795, -75.2143",980,4.2,Golden Treasure,PA
212,409,Crabby Larry's Brewpub Steak & Crab House,237 West Butler Avenue,,Chalfont,Pennsylvania,18914,United States,1-215-822-8788,http://www.crabbylarrys.com/,,,2010-07-22T16:00:20-04:00,"40.2795, -75.2143",981,6.0,Crabby Larry's Irish Red Ale,PA
213,409,Crabby Larry's Brewpub Steak & Crab House,237 West Butler Avenue,,Chalfont,Pennsylvania,18914,United States,1-215-822-8788,http://www.crabbylarrys.com/,,,2010-07-22T16:00:20-04:00,"40.2795, -75.2143",982,5.4,Calico Jack Amber Ale,PA
214,409,Crabby Larry's Brewpub Steak & Crab House,237 West Butler Avenue,,Chalfont,Pennsylvania,18914,United States,1-215-822-8788,http://www.crabbylarrys.com/,,,2010-07-22T16:00:20-04:00,"40.2795, -75.2143",983,0.0,Pale Ale,PA
215,409,Crabby Larry's Brewpub Steak & Crab House,237 West Butler Avenue,,Chalfont,Pennsylvania,18914,United States,1-215-822-8788,http://www.crabbylarrys.com/,,,2010-07-22T16:00:20-04:00,"40.2795, -75.2143",984,0.0,Summer Lager,PA
218,562,Full Sail Brewing #1,506 Columbia Street,,Hood River,Oregon,97031,United States,1-541-386-2281,,,,2010-07-22T16:00:20-04:00,"45.7103, -121.515",130,6.4,LTD 02 Lager,OR
219,562,Full Sail Brewing #1,506 Columbia Street,,Hood River,Oregon,97031,United States,1-541-386-2281,,,,2010-07-22T16:00:20-04:00,"45.7103, -121.515",133,9.0,Old Boardhead 2006,OR
220,562,Full Sail Brewing #1,506 Columbia Street,,Hood River,Oregon,97031,United States,1-541-386-2281,,,,2010-07-22T16:00:20-04:00,"45.7103, -121.515",135,0.0,Nugget,OR
221,562,Full Sail Brewing #1,506 Columbia Street,,Hood River,Oregon,97031,United States,1-541-386-2281,,,,2010-07-22T16:00:20-04:00,"45.7103, -121.515",428,5.1,Session Premium Lager,OR
222,562,Full Sail Brewing #1,506 Columbia Street,,Hood River,Oregon,97031,United States,1-541-386-2281,,,,2010-07-22T16:00:20-04:00,"45.7103, -121.515",830,7.8,Slip Knot Imperial IPA 2006,OR
223,588,Gordon Biersch Brewing,357 East Taylor Street,,San Jose,California,95112,United States,1-408-278-1008,http://www.gordonbiersch.com/brewery,,,2010-07-22T16:00:20-04:00,"37.3526, -121.893",285,7.0,Blonde Bock,CA
224,588,Gordon Biersch Brewing,357 East Taylor Street,,San Jose,California,95112,United States,1-408-278-1008,http://www.gordonbiersch.com/brewery,,,2010-07-22T16:00:20-04:00,"37.3526, -121.893",286,4.3,Schwarzbier,CA
225,588,Gordon Biersch Brewing,357 East Taylor Street,,San Jose,California,95112,United States,1-408-278-1008,http://www.gordonbiersch.com/brewery,,,2010-07-22T16:00:20-04:00,"37.3526, -121.893",287,0.0,Czech Lager,CA
226,588,Gordon Biersch Brewing,357 East Taylor Street,,San Jose,California,95112,United States,1-408-278-1008,http://www.gordonbiersch.com/brewery,,,2010-07-22T16:00:20-04:00,"37.3526, -121.893",289,5.3,Pilsner,CA
227,624,Half Moon Bay Brewing,390 Capistrano Road,,Princeton by the Sea,California,94019,United States,1-650-728-2739,,,,2010-07-22T16:00:20-04:00,"37.4903, -122.435",260,6.8,Illuminator Doppelbock,CA
228,624,Half Moon Bay Brewing,390 Capistrano Road,,Princeton by the Sea,California,94019,United States,1-650-728-2739,,,,2010-07-22T16:00:20-04:00,"37.4903, -122.435",261,6.1,Old Princeton Landing IPA,CA
229,624,Half Moon Bay Brewing,390 Capistrano Road,,Princeton by the Sea,California,94019,United States,1-650-728-2739,,,,2010-07-22T16:00:20-04:00,"37.4903, -122.435",262,5.2,Paddle Out Stout,CA
230,624,Half Moon Bay Brewing,390 Capistrano Road,,Princeton by the Sea,California,94019,United States,1-650-728-2739,,,,2010-07-22T16:00:20-04:00,"37.4903, -122.435",263,4.6,Pillar Point Pale Ale,CA
231,624,Half Moon Bay Brewing,390 Capistrano Road,,Princeton by the Sea,California,94019,United States,1-650-728-2739,,,,2010-07-22T16:00:20-04:00,"37.4903, -122.435",264,4.5,Sandy Beach Blonde Hefeweizen,CA
232,624,Half Moon Bay Brewing,390 Capistrano Road,,Princeton by the Sea,California,94019,United States,1-650-728-2739,,,,2010-07-22T16:00:20-04:00,"37.4903, -122.435",265,4.8,Mavericks Amber Ale,CA
233,624,Half Moon Bay Brewing,390 Capistrano Road,,Princeton by the Sea,California,94019,United States,1-650-728-2739,,,,2010-07-22T16:00:20-04:00,"37.4903, -122.435",266,4.8,Harbor Light Ale,CA
234,721,John Harvard's Brewhouse - Wilmington,,,Wilmington,Delaware,,United States,,,,,2010-07-22T16:00:20-04:00,"39.7458, -75.5467",999,0.0,Half Again Bock,DE
235,721,John Harvard's Brewhouse - Wilmington,,,Wilmington,Delaware,,United States,,,,,2010-07-22T16:00:20-04:00,"39.7458, -75.5467",1000,0.0,Winterfest Lager,DE
241,810,Mad River Brewing,195 Taylor Way,,Blue Lake,California,95525,United States,1-707-668-4151,,,,2010-07-22T16:00:20-04:00,"40.879, -123.993",182,8.6,Double India Pale Ale,CA
242,892,Moylan's Brewery & Restaurant,15 Rowland Way,,Novato,California,94945,United States,1-415-898-4677,http://www.moylans.com/,,,2010-07-22T16:00:20-04:00,"38.0941, -122.557",199,6.5,White Christmas,CA
243,892,Moylan's Brewery & Restaurant,15 Rowland Way,,Novato,California,94945,United States,1-415-898-4677,http://www.moylans.com/,,,2010-07-22T16:00:20-04:00,"38.0941, -122.557",281,10.0,Old Blarney Barleywine,CA
244,892,Moylan's Brewery & Restaurant,15 Rowland Way,,Novato,California,94945,United States,1-415-898-4677,http://www.moylans.com/,,,2010-07-22T16:00:20-04:00,"38.0941, -122.557",282,4.8,Irish Dry Stout,CA
245,892,Moylan's Brewery & Restaurant,15 Rowland Way,,Novato,California,94945,United States,1-415-898-4677,http://www.moylans.com/,,,2010-07-22T16:00:20-04:00,"38.0941, -122.557",283,8.0,Kilt Lifter Scottish Ale,CA
246,892,Moylan's Brewery & Restaurant,15 Rowland Way,,Novato,California,94945,United States,1-415-898-4677,http://www.moylans.com/,,,2010-07-22T16:00:20-04:00,"38.0941, -122.557",284,6.5,India Pale Ale,CA
247,892,Moylan's Brewery & Restaurant,15 Rowland Way,,Novato,California,94945,United States,1-415-898-4677,http://www.moylans.com/,,,2010-07-22T16:00:20-04:00,"38.0941, -122.557",903,8.5,Moylander Double IPA,CA
248,974,Pelican Pub & Brewery,33180 Cape Kiwanda Drive,,Pacific City,Oregon,97135,United States,1-503-965-7007,http://www.pelicanbrewery.com/,,,2010-07-22T16:00:20-04:00,"45.2152, -123.97",49,0.0,Bridal Ale 2005,OR
252,1084,Rush River Brewing,990 Antler Court,,River Falls,Wisconsin,54022,United States,1-715-426-2054,,,,2010-07-22T16:00:20-04:00,"44.8902, -92.6378",162,5.8,The Unforgiven Amber Ale,WI
273,249,Brewery Ommegang,656 County Highway 33,,Cooperstown,New York,13326,United States,1-800-544-1809,,,,2010-07-22T16:00:20-04:00,"42.6818, -74.9255",402,7.7,Hennepin Farmhouse Ale,NY
298,526,Fish Brewing Company & Fish Tail Brewpub,515 Jefferson Street SE,,Olympia,Washington,98501,United States,1-360-943-3650,http://www.fishbrewing.com/,,"From our home in beautiful Olympia, Washington, Fish Brewing Company has been hand-crafting ales of Northwest proportions since 1993. Then, using a system cobbled from brewing and dairy equipment, we brewed for our neighbors up and down Puget Sound. Growing steadily since, Fish is now an award-winning craft brewer with distribution throughout the Pacific Northwest and beyond.",2010-07-22T16:00:20-04:00,"47.0437, -122.897",758,0.0,Poseidon Imperial Stout,WA
299,526,Fish Brewing Company & Fish Tail Brewpub,515 Jefferson Street SE,,Olympia,Washington,98501,United States,1-360-943-3650,http://www.fishbrewing.com/,,"From our home in beautiful Olympia, Washington, Fish Brewing Company has been hand-crafting ales of Northwest proportions since 1993. Then, using a system cobbled from brewing and dairy equipment, we brewed for our neighbors up and down Puget Sound. Growing steadily since, Fish is now an award-winning craft brewer with distribution throughout the Pacific Northwest and beyond.",2010-07-22T16:00:20-04:00,"47.0437, -122.897",759,0.0,Thornton Creel Ale,WA
300,526,Fish Brewing Company & Fish Tail Brewpub,515 Jefferson Street SE,,Olympia,Washington,98501,United States,1-360-943-3650,http://www.fishbrewing.com/,,"From our home in beautiful Olympia, Washington, Fish Brewing Company has been hand-crafting ales of Northwest proportions since 1993. Then, using a system cobbled from brewing and dairy equipment, we brewed for our neighbors up and down Puget Sound. Growing steadily since, Fish is now an award-winning craft brewer with distribution throughout the Pacific Northwest and beyond.",2010-07-22T16:00:20-04:00,"47.0437, -122.897",760,0.0,Blonde Ale,WA
301,526,Fish Brewing Company & Fish Tail Brewpub,515 Jefferson Street SE,,Olympia,Washington,98501,United States,1-360-943-3650,http://www.fishbrewing.com/,,"From our home in beautiful Olympia, Washington, Fish Brewing Company has been hand-crafting ales of Northwest proportions since 1993. Then, using a system cobbled from brewing and dairy equipment, we brewed for our neighbors up and down Puget Sound. Growing steadily since, Fish is now an award-winning craft brewer with distribution throughout the Pacific Northwest and beyond.",2010-07-22T16:00:20-04:00,"47.0437, -122.897",761,0.0,Light,WA
302,526,Fish Brewing Company & Fish Tail Brewpub,515 Jefferson Street SE,,Olympia,Washington,98501,United States,1-360-943-3650,http://www.fishbrewing.com/,,"From our home in beautiful Olympia, Washington, Fish Brewing Company has been hand-crafting ales of Northwest proportions since 1993. Then, using a system cobbled from brewing and dairy equipment, we brewed for our neighbors up and down Puget Sound. Growing steadily since, Fish is now an award-winning craft brewer with distribution throughout the Pacific Northwest and beyond.",2010-07-22T16:00:20-04:00,"47.0437, -122.897",762,7.5,WinterFish Ale,WA
303,526,Fish Brewing Company & Fish Tail Brewpub,515 Jefferson Street SE,,Olympia,Washington,98501,United States,1-360-943-3650,http://www.fishbrewing.com/,,"From our home in beautiful Olympia, Washington, Fish Brewing Company has been hand-crafting ales of Northwest proportions since 1993. Then, using a system cobbled from brewing and dairy equipment, we brewed for our neighbors up and down Puget Sound. Growing steadily since, Fish is now an award-winning craft brewer with distribution throughout the Pacific Northwest and beyond.",2010-07-22T16:00:20-04:00,"47.0437, -122.897",763,0.0,Mudshark Porter,WA
304,526,Fish Brewing Company & Fish Tail Brewpub,515 Jefferson Street SE,,Olympia,Washington,98501,United States,1-360-943-3650,http://www.fishbrewing.com/,,"From our home in beautiful Olympia, Washington, Fish Brewing Company has been hand-crafting ales of Northwest proportions since 1993. Then, using a system cobbled from brewing and dairy equipment, we brewed for our neighbors up and down Puget Sound. Growing steadily since, Fish is now an award-winning craft brewer with distribution throughout the Pacific Northwest and beyond.",2010-07-22T16:00:20-04:00,"47.0437, -122.897",764,6.7,Organic India Pale Ale,WA
305,526,Fish Brewing Company & Fish Tail Brewpub,515 Jefferson Street SE,,Olympia,Washington,98501,United States,1-360-943-3650,http://www.fishbrewing.com/,,"From our home in beautiful Olympia, Washington, Fish Brewing Company has been hand-crafting ales of Northwest proportions since 1993. Then, using a system cobbled from brewing and dairy equipment, we brewed for our neighbors up and down Puget Sound. Growing steadily since, Fish is now an award-winning craft brewer with distribution throughout the Pacific Northwest and beyond.",2010-07-22T16:00:20-04:00,"47.0437, -122.897",765,4.0,Wild Salmon Pale Ale,WA
306,526,Fish Brewing Company & Fish Tail Brewpub,515 Jefferson Street SE,,Olympia,Washington,98501,United States,1-360-943-3650,http://www.fishbrewing.com/,,"From our home in beautiful Olympia, Washington, Fish Brewing Company has been hand-crafting ales of Northwest proportions since 1993. Then, using a system cobbled from brewing and dairy equipment, we brewed for our neighbors up and down Puget Sound. Growing steadily since, Fish is now an award-winning craft brewer with distribution throughout the Pacific Northwest and beyond.",2010-07-22T16:00:20-04:00,"47.0437, -122.897",766,5.0,Organic Amber Ale,WA
307,526,Fish Brewing Company & Fish Tail Brewpub,515 Jefferson Street SE,,Olympia,Washington,98501,United States,1-360-943-3650,http://www.fishbrewing.com/,,"From our home in beautiful Olympia, Washington, Fish Brewing Company has been hand-crafting ales of Northwest proportions since 1993. Then, using a system cobbled from brewing and dairy equipment, we brewed for our neighbors up and down Puget Sound. Growing steadily since, Fish is now an award-winning craft brewer with distribution throughout the Pacific Northwest and beyond.",2010-07-22T16:00:20-04:00,"47.0437, -122.897",767,4.7,Blind Pig Dunkelweizen,WA
308,526,Fish Brewing Company & Fish Tail Brewpub,515 Jefferson Street SE,,Olympia,Washington,98501,United States,1-360-943-3650,http://www.fishbrewing.com/,,"From our home in beautiful Olympia, Washington, Fish Brewing Company has been hand-crafting ales of Northwest proportions since 1993. Then, using a system cobbled from brewing and dairy equipment, we brewed for our neighbors up and down Puget Sound. Growing steadily since, Fish is now an award-winning craft brewer with distribution throughout the Pacific Northwest and beyond.",2010-07-22T16:00:20-04:00,"47.0437, -122.897",768,4.5,Whistling Pig Hefeweizen,WA
309,526,Fish Brewing Company & Fish Tail Brewpub,515 Jefferson Street SE,,Olympia,Washington,98501,United States,1-360-943-3650,http://www.fishbrewing.com/,,"From our home in beautiful Olympia, Washington, Fish Brewing Company has been hand-crafting ales of Northwest proportions since 1993. Then, using a system cobbled from brewing and dairy equipment, we brewed for our neighbors up and down Puget Sound. Growing steadily since, Fish is now an award-winning craft brewer with distribution throughout the Pacific Northwest and beyond.",2010-07-22T16:00:20-04:00,"47.0437, -122.897",798,10.0,Leviathan 2004,WA
310,526,Fish Brewing Company & Fish Tail Brewpub,515 Jefferson Street SE,,Olympia,Washington,98501,United States,1-360-943-3650,http://www.fishbrewing.com/,,"From our home in beautiful Olympia, Washington, Fish Brewing Company has been hand-crafting ales of Northwest proportions since 1993. Then, using a system cobbled from brewing and dairy equipment, we brewed for our neighbors up and down Puget Sound. Growing steadily since, Fish is now an award-winning craft brewer with distribution throughout the Pacific Northwest and beyond.",2010-07-22T16:00:20-04:00,"47.0437, -122.897",800,10.0,Old Woody 2005,WA
314,701,Iron Springs Pub & Brewery,765 Center Boulevard,,Fairfax,California,94930,United States,1-415-485-1005,,,,2010-07-22T16:00:20-04:00,"37.986, -122.584",273,7.25,Casey Jones Imperial IPA,CA
315,701,Iron Springs Pub & Brewery,765 Center Boulevard,,Fairfax,California,94930,United States,1-415-485-1005,,,,2010-07-22T16:00:20-04:00,"37.986, -122.584",274,5.5,Fairfax Coffee Porter,CA
316,701,Iron Springs Pub & Brewery,765 Center Boulevard,,Fairfax,California,94930,United States,1-415-485-1005,,,,2010-07-22T16:00:20-04:00,"37.986, -122.584",275,5.5,Epiphany Ale,CA
317,701,Iron Springs Pub & Brewery,765 Center Boulevard,,Fairfax,California,94930,United States,1-415-485-1005,,,,2010-07-22T16:00:20-04:00,"37.986, -122.584",276,6.0,IPA,CA
318,701,Iron Springs Pub & Brewery,765 Center Boulevard,,Fairfax,California,94930,United States,1-415-485-1005,,,,2010-07-22T16:00:20-04:00,"37.986, -122.584",277,4.5,Chazz Cat Rye,CA
319,701,Iron Springs Pub & Brewery,765 Center Boulevard,,Fairfax,California,94930,United States,1-415-485-1005,,,,2010-07-22T16:00:20-04:00,"37.986, -122.584",278,5.0,Shining Star Pale Ale,CA
320,701,Iron Springs Pub & Brewery,765 Center Boulevard,,Fairfax,California,94930,United States,1-415-485-1005,,,,2010-07-22T16:00:20-04:00,"37.986, -122.584",279,5.8,Honey Bunny Blonde Ale,CA
321,701,Iron Springs Pub & Brewery,765 Center Boulevard,,Fairfax,California,94930,United States,1-415-485-1005,,,,2010-07-22T16:00:20-04:00,"37.986, -122.584",280,4.0,Kent Lake Kolsch,CA
322,905,New Belgium Brewing,500 Linden Street,,Fort Collins,Colorado,80524,United States,1-888-622-4044,http://www.newbelgium.com/,,"We'll set the scene: 1989. Belgium. Boy on bike. (OK, make that a young man of 32). As our aspiring young homebrewer rides his mountain bike with fat tires through European villages famous for beer, New Belgium Brewing Company was but a glimmer in his eye. Or basement. For Jeff Lebesch would return to Fort Collins with a handful of ingredients and an imagination full of recipes. And then there was beer. Jeff's first two basement-brewed creations? A brown dubbel with earthy undertones named Abbey and a remarkably well-balanced amber he named Fat Tire. To say the rest was history would be to overlook his wife's involvement. Kim Jordan was New Belgium's first bottler, sales rep, distributor, marketer and financial planner. And now, she's our CEO.",2010-07-22T16:00:20-04:00,"40.5929, -105.07",68,0.0,Big Shot Seasonal Ale,CO
323,905,New Belgium Brewing,500 Linden Street,,Fort Collins,Colorado,80524,United States,1-888-622-4044,http://www.newbelgium.com/,,"We'll set the scene: 1989. Belgium. Boy on bike. (OK, make that a young man of 32). As our aspiring young homebrewer rides his mountain bike with fat tires through European villages famous for beer, New Belgium Brewing Company was but a glimmer in his eye. Or basement. For Jeff Lebesch would return to Fort Collins with a handful of ingredients and an imagination full of recipes. And then there was beer. Jeff's first two basement-brewed creations? A brown dubbel with earthy undertones named Abbey and a remarkably well-balanced amber he named Fat Tire. To say the rest was history would be to overlook his wife's involvement. Kim Jordan was New Belgium's first bottler, sales rep, distributor, marketer and financial planner. And now, she's our CEO.",2010-07-22T16:00:20-04:00,"40.5929, -105.07",112,6.0,La Folie Falling Rock,CO
324,905,New Belgium Brewing,500 Linden Street,,Fort Collins,Colorado,80524,United States,1-888-622-4044,http://www.newbelgium.com/,,"We'll set the scene: 1989. Belgium. Boy on bike. (OK, make that a young man of 32). As our aspiring young homebrewer rides his mountain bike with fat tires through European villages famous for beer, New Belgium Brewing Company was but a glimmer in his eye. Or basement. For Jeff Lebesch would return to Fort Collins with a handful of ingredients and an imagination full of recipes. And then there was beer. Jeff's first two basement-brewed creations? A brown dubbel with earthy undertones named Abbey and a remarkably well-balanced amber he named Fat Tire. To say the rest was history would be to overlook his wife's involvement. Kim Jordan was New Belgium's first bottler, sales rep, distributor, marketer and financial planner. And now, she's our CEO.",2010-07-22T16:00:20-04:00,"40.5929, -105.07",209,4.8,Sunshine Wheat,CO
325,905,New Belgium Brewing,500 Linden Street,,Fort Collins,Colorado,80524,United States,1-888-622-4044,http://www.newbelgium.com/,,"We'll set the scene: 1989. Belgium. Boy on bike. (OK, make that a young man of 32). As our aspiring young homebrewer rides his mountain bike with fat tires through European villages famous for beer, New Belgium Brewing Company was but a glimmer in his eye. Or basement. For Jeff Lebesch would return to Fort Collins with a handful of ingredients and an imagination full of recipes. And then there was beer. Jeff's first two basement-brewed creations? A brown dubbel with earthy undertones named Abbey and a remarkably well-balanced amber he named Fat Tire. To say the rest was history would be to overlook his wife's involvement. Kim Jordan was New Belgium's first bottler, sales rep, distributor, marketer and financial planner. And now, she's our CEO.",2010-07-22T16:00:20-04:00,"40.5929, -105.07",223,4.2,Skinny Dip,CO
326,905,New Belgium Brewing,500 Linden Street,,Fort Collins,Colorado,80524,United States,1-888-622-4044,http://www.newbelgium.com/,,"We'll set the scene: 1989. Belgium. Boy on bike. (OK, make that a young man of 32). As our aspiring young homebrewer rides his mountain bike with fat tires through European villages famous for beer, New Belgium Brewing Company was but a glimmer in his eye. Or basement. For Jeff Lebesch would return to Fort Collins with a handful of ingredients and an imagination full of recipes. And then there was beer. Jeff's first two basement-brewed creations? A brown dubbel with earthy undertones named Abbey and a remarkably well-balanced amber he named Fat Tire. To say the rest was history would be to overlook his wife's involvement. Kim Jordan was New Belgium's first bottler, sales rep, distributor, marketer and financial planner. And now, she's our CEO.",2010-07-22T16:00:20-04:00,"40.5929, -105.07",226,4.8,Mothership Wit,CO
327,905,New Belgium Brewing,500 Linden Street,,Fort Collins,Colorado,80524,United States,1-888-622-4044,http://www.newbelgium.com/,,"We'll set the scene: 1989. Belgium. Boy on bike. (OK, make that a young man of 32). As our aspiring young homebrewer rides his mountain bike with fat tires through European villages famous for beer, New Belgium Brewing Company was but a glimmer in his eye. Or basement. For Jeff Lebesch would return to Fort Collins with a handful of ingredients and an imagination full of recipes. And then there was beer. Jeff's first two basement-brewed creations? A brown dubbel with earthy undertones named Abbey and a remarkably well-balanced amber he named Fat Tire. To say the rest was history would be to overlook his wife's involvement. Kim Jordan was New Belgium's first bottler, sales rep, distributor, marketer and financial planner. And now, she's our CEO.",2010-07-22T16:00:20-04:00,"40.5929, -105.07",401,8.5,New Belgium Trippel Belgian Style Ale,CO
328,905,New Belgium Brewing,500 Linden Street,,Fort Collins,Colorado,80524,United States,1-888-622-4044,http://www.newbelgium.com/,,"We'll set the scene: 1989. Belgium. Boy on bike. (OK, make that a young man of 32). As our aspiring young homebrewer rides his mountain bike with fat tires through European villages famous for beer, New Belgium Brewing Company was but a glimmer in his eye. Or basement. For Jeff Lebesch would return to Fort Collins with a handful of ingredients and an imagination full of recipes. And then there was beer. Jeff's first two basement-brewed creations? A brown dubbel with earthy undertones named Abbey and a remarkably well-balanced amber he named Fat Tire. To say the rest was history would be to overlook his wife's involvement. Kim Jordan was New Belgium's first bottler, sales rep, distributor, marketer and financial planner. And now, she's our CEO.",2010-07-22T16:00:20-04:00,"40.5929, -105.07",403,7.0,Abbey Belgian Style Ale,CO
329,905,New Belgium Brewing,500 Linden Street,,Fort Collins,Colorado,80524,United States,1-888-622-4044,http://www.newbelgium.com/,,"We'll set the scene: 1989. Belgium. Boy on bike. (OK, make that a young man of 32). As our aspiring young homebrewer rides his mountain bike with fat tires through European villages famous for beer, New Belgium Brewing Company was but a glimmer in his eye. Or basement. For Jeff Lebesch would return to Fort Collins with a handful of ingredients and an imagination full of recipes. And then there was beer. Jeff's first two basement-brewed creations? A brown dubbel with earthy undertones named Abbey and a remarkably well-balanced amber he named Fat Tire. To say the rest was history would be to overlook his wife's involvement. Kim Jordan was New Belgium's first bottler, sales rep, distributor, marketer and financial planner. And now, she's our CEO.",2010-07-22T16:00:20-04:00,"40.5929, -105.07",416,6.6,2 Below,CO
330,905,New Belgium Brewing,500 Linden Street,,Fort Collins,Colorado,80524,United States,1-888-622-4044,http://www.newbelgium.com/,,"We'll set the scene: 1989. Belgium. Boy on bike. (OK, make that a young man of 32). As our aspiring young homebrewer rides his mountain bike with fat tires through European villages famous for beer, New Belgium Brewing Company was but a glimmer in his eye. Or basement. For Jeff Lebesch would return to Fort Collins with a handful of ingredients and an imagination full of recipes. And then there was beer. Jeff's first two basement-brewed creations? A brown dubbel with earthy undertones named Abbey and a remarkably well-balanced amber he named Fat Tire. To say the rest was history would be to overlook his wife's involvement. Kim Jordan was New Belgium's first bottler, sales rep, distributor, marketer and financial planner. And now, she's our CEO.",2010-07-22T16:00:20-04:00,"40.5929, -105.07",431,4.8,Blue Paddle Pilsener,CO
331,905,New Belgium Brewing,500 Linden Street,,Fort Collins,Colorado,80524,United States,1-888-622-4044,http://www.newbelgium.com/,,"We'll set the scene: 1989. Belgium. Boy on bike. (OK, make that a young man of 32). As our aspiring young homebrewer rides his mountain bike with fat tires through European villages famous for beer, New Belgium Brewing Company was but a glimmer in his eye. Or basement. For Jeff Lebesch would return to Fort Collins with a handful of ingredients and an imagination full of recipes. And then there was beer. Jeff's first two basement-brewed creations? A brown dubbel with earthy undertones named Abbey and a remarkably well-balanced amber he named Fat Tire. To say the rest was history would be to overlook his wife's involvement. Kim Jordan was New Belgium's first bottler, sales rep, distributor, marketer and financial planner. And now, she's our CEO.",2010-07-22T16:00:20-04:00,"40.5929, -105.07",439,6.0,La Folie,CO
332,905,New Belgium Brewing,500 Linden Street,,Fort Collins,Colorado,80524,United States,1-888-622-4044,http://www.newbelgium.com/,,"We'll set the scene: 1989. Belgium. Boy on bike. (OK, make that a young man of 32). As our aspiring young homebrewer rides his mountain bike with fat tires through European villages famous for beer, New Belgium Brewing Company was but a glimmer in his eye. Or basement. For Jeff Lebesch would return to Fort Collins with a handful of ingredients and an imagination full of recipes. And then there was beer. Jeff's first two basement-brewed creations? A brown dubbel with earthy undertones named Abbey and a remarkably well-balanced amber he named Fat Tire. To say the rest was history would be to overlook his wife's involvement. Kim Jordan was New Belgium's first bottler, sales rep, distributor, marketer and financial planner. And now, she's our CEO.",2010-07-22T16:00:20-04:00,"40.5929, -105.07",593,0.0,Saison,CO
375,441,Deschutes Brewery,901 SW Simpson Avenue,,Bend,Oregon,97702,United States,1-541-385-8606,http://www.deschutesbrewery.com/,,"Deschutes Brewery, located in Central Oregon along the banks of the wild and scenic Deschutes River, has brewed handcrafted traditional ales since 1988.  Starting out as a small brewpub in the heart of downtown Bend, Deschutes' first beers were Black Butte Porter, Bachelor Bitter and Cascade Golden Ale. In 1993, Deschutes moved into its current brewing facility and has continued expanding and improving the facilities.  With a 50-barrel traditional gravity brew house and a new one-of-a-kind 131-barrel Huppmann brew system from Germany, Deschutes now creates and experiments with specialty batches of limited beers while brewing large quantities of everyone's favorites like Mirror Pond Pale Ale.  Consistently producing the highest quality beers is always Deschutes' number one priority and commitment. The Deschutes Brewery & Public House continues brewing unique beers at our original location while serving the finest Northwest pub cuisine.  So when you find yourself in Bend, come on in and have a pint of Bachelor Bitter, the locals' favorite, or any of our other original ales brewed on-site. Deschutes Brewery's distinct ales; Black Butte Porter, Mirror Pond Pale Ale, Obsidian Stout, Inversion IPA, Bachelor ESB, Cascade Ale, Buzzsaw Brown (winter), Cinder Cone Red (spring), Twilight Ale (summer), Jubelale (fall) and other seasonal beers are available at pubs and markets in a neighborhood near you. --http://www.deschutesbrewery.com/About+Us/default.aspx",2010-07-22T16:00:20-04:00,"44.0474, -121.323",124,4.8,Buzzsaw Brown,OR
376,441,Deschutes Brewery,901 SW Simpson Avenue,,Bend,Oregon,97702,United States,1-541-385-8606,http://www.deschutesbrewery.com/,,"Deschutes Brewery, located in Central Oregon along the banks of the wild and scenic Deschutes River, has brewed handcrafted traditional ales since 1988.  Starting out as a small brewpub in the heart of downtown Bend, Deschutes' first beers were Black Butte Porter, Bachelor Bitter and Cascade Golden Ale. In 1993, Deschutes moved into its current brewing facility and has continued expanding and improving the facilities.  With a 50-barrel traditional gravity brew house and a new one-of-a-kind 131-barrel Huppmann brew system from Germany, Deschutes now creates and experiments with specialty batches of limited beers while brewing large quantities of everyone's favorites like Mirror Pond Pale Ale.  Consistently producing the highest quality beers is always Deschutes' number one priority and commitment. The Deschutes Brewery & Public House continues brewing unique beers at our original location while serving the finest Northwest pub cuisine.  So when you find yourself in Bend, come on in and have a pint of Bachelor Bitter, the locals' favorite, or any of our other original ales brewed on-site. Deschutes Brewery's distinct ales; Black Butte Porter, Mirror Pond Pale Ale, Obsidian Stout, Inversion IPA, Bachelor ESB, Cascade Ale, Buzzsaw Brown (winter), Cinder Cone Red (spring), Twilight Ale (summer), Jubelale (fall) and other seasonal beers are available at pubs and markets in a neighborhood near you. --http://www.deschutesbrewery.com/About+Us/default.aspx",2010-07-22T16:00:20-04:00,"44.0474, -121.323",129,5.4,Cinder Cone Red,OR
377,441,Deschutes Brewery,901 SW Simpson Avenue,,Bend,Oregon,97702,United States,1-541-385-8606,http://www.deschutesbrewery.com/,,"Deschutes Brewery, located in Central Oregon along the banks of the wild and scenic Deschutes River, has brewed handcrafted traditional ales since 1988.  Starting out as a small brewpub in the heart of downtown Bend, Deschutes' first beers were Black Butte Porter, Bachelor Bitter and Cascade Golden Ale. In 1993, Deschutes moved into its current brewing facility and has continued expanding and improving the facilities.  With a 50-barrel traditional gravity brew house and a new one-of-a-kind 131-barrel Huppmann brew system from Germany, Deschutes now creates and experiments with specialty batches of limited beers while brewing large quantities of everyone's favorites like Mirror Pond Pale Ale.  Consistently producing the highest quality beers is always Deschutes' number one priority and commitment. The Deschutes Brewery & Public House continues brewing unique beers at our original location while serving the finest Northwest pub cuisine.  So when you find yourself in Bend, come on in and have a pint of Bachelor Bitter, the locals' favorite, or any of our other original ales brewed on-site. Deschutes Brewery's distinct ales; Black Butte Porter, Mirror Pond Pale Ale, Obsidian Stout, Inversion IPA, Bachelor ESB, Cascade Ale, Buzzsaw Brown (winter), Cinder Cone Red (spring), Twilight Ale (summer), Jubelale (fall) and other seasonal beers are available at pubs and markets in a neighborhood near you. --http://www.deschutesbrewery.com/About+Us/default.aspx",2010-07-22T16:00:20-04:00,"44.0474, -121.323",148,8.7,Bond Street 19th Anniversary,OR
378,441,Deschutes Brewery,901 SW Simpson Avenue,,Bend,Oregon,97702,United States,1-541-385-8606,http://www.deschutesbrewery.com/,,"Deschutes Brewery, located in Central Oregon along the banks of the wild and scenic Deschutes River, has brewed handcrafted traditional ales since 1988.  Starting out as a small brewpub in the heart of downtown Bend, Deschutes' first beers were Black Butte Porter, Bachelor Bitter and Cascade Golden Ale. In 1993, Deschutes moved into its current brewing facility and has continued expanding and improving the facilities.  With a 50-barrel traditional gravity brew house and a new one-of-a-kind 131-barrel Huppmann brew system from Germany, Deschutes now creates and experiments with specialty batches of limited beers while brewing large quantities of everyone's favorites like Mirror Pond Pale Ale.  Consistently producing the highest quality beers is always Deschutes' number one priority and commitment. The Deschutes Brewery & Public House continues brewing unique beers at our original location while serving the finest Northwest pub cuisine.  So when you find yourself in Bend, come on in and have a pint of Bachelor Bitter, the locals' favorite, or any of our other original ales brewed on-site. Deschutes Brewery's distinct ales; Black Butte Porter, Mirror Pond Pale Ale, Obsidian Stout, Inversion IPA, Bachelor ESB, Cascade Ale, Buzzsaw Brown (winter), Cinder Cone Red (spring), Twilight Ale (summer), Jubelale (fall) and other seasonal beers are available at pubs and markets in a neighborhood near you. --http://www.deschutesbrewery.com/About+Us/default.aspx",2010-07-22T16:00:20-04:00,"44.0474, -121.323",411,5.5,Hop Trip Fresh Hop Pale Ale,OR
379,441,Deschutes Brewery,901 SW Simpson Avenue,,Bend,Oregon,97702,United States,1-541-385-8606,http://www.deschutesbrewery.com/,,"Deschutes Brewery, located in Central Oregon along the banks of the wild and scenic Deschutes River, has brewed handcrafted traditional ales since 1988.  Starting out as a small brewpub in the heart of downtown Bend, Deschutes' first beers were Black Butte Porter, Bachelor Bitter and Cascade Golden Ale. In 1993, Deschutes moved into its current brewing facility and has continued expanding and improving the facilities.  With a 50-barrel traditional gravity brew house and a new one-of-a-kind 131-barrel Huppmann brew system from Germany, Deschutes now creates and experiments with specialty batches of limited beers while brewing large quantities of everyone's favorites like Mirror Pond Pale Ale.  Consistently producing the highest quality beers is always Deschutes' number one priority and commitment. The Deschutes Brewery & Public House continues brewing unique beers at our original location while serving the finest Northwest pub cuisine.  So when you find yourself in Bend, come on in and have a pint of Bachelor Bitter, the locals' favorite, or any of our other original ales brewed on-site. Deschutes Brewery's distinct ales; Black Butte Porter, Mirror Pond Pale Ale, Obsidian Stout, Inversion IPA, Bachelor ESB, Cascade Ale, Buzzsaw Brown (winter), Cinder Cone Red (spring), Twilight Ale (summer), Jubelale (fall) and other seasonal beers are available at pubs and markets in a neighborhood near you. --http://www.deschutesbrewery.com/About+Us/default.aspx",2010-07-22T16:00:20-04:00,"44.0474, -121.323",423,6.8,Inversion IPA,OR
380,441,Deschutes Brewery,901 SW Simpson Avenue,,Bend,Oregon,97702,United States,1-541-385-8606,http://www.deschutesbrewery.com/,,"Deschutes Brewery, located in Central Oregon along the banks of the wild and scenic Deschutes River, has brewed handcrafted traditional ales since 1988.  Starting out as a small brewpub in the heart of downtown Bend, Deschutes' first beers were Black Butte Porter, Bachelor Bitter and Cascade Golden Ale. In 1993, Deschutes moved into its current brewing facility and has continued expanding and improving the facilities.  With a 50-barrel traditional gravity brew house and a new one-of-a-kind 131-barrel Huppmann brew system from Germany, Deschutes now creates and experiments with specialty batches of limited beers while brewing large quantities of everyone's favorites like Mirror Pond Pale Ale.  Consistently producing the highest quality beers is always Deschutes' number one priority and commitment. The Deschutes Brewery & Public House continues brewing unique beers at our original location while serving the finest Northwest pub cuisine.  So when you find yourself in Bend, come on in and have a pint of Bachelor Bitter, the locals' favorite, or any of our other original ales brewed on-site. Deschutes Brewery's distinct ales; Black Butte Porter, Mirror Pond Pale Ale, Obsidian Stout, Inversion IPA, Bachelor ESB, Cascade Ale, Buzzsaw Brown (winter), Cinder Cone Red (spring), Twilight Ale (summer), Jubelale (fall) and other seasonal beers are available at pubs and markets in a neighborhood near you. --http://www.deschutesbrewery.com/About+Us/default.aspx",2010-07-22T16:00:20-04:00,"44.0474, -121.323",927,6.0,Quail Springs IPA,OR
382,609,Green Flash Brewing,1430 Vantage Court #104A,,Vista,California,92083,United States,1-760-597-9012,http://www.greenflashbrew.com,,,2010-07-22T16:00:20-04:00,"33.136, -117.225",397,10.0,Barleywine,CA
383,623,Hale's Ales #3,4301 Leary Way NW,,Seattle,Washington,98107,United States,1-206-706-1544,,,,2010-07-22T16:00:20-04:00,"47.6592, -122.366",127,0.0,Troll Porter,WA
384,623,Hale's Ales #3,4301 Leary Way NW,,Seattle,Washington,98107,United States,1-206-706-1544,,,,2010-07-22T16:00:20-04:00,"47.6592, -122.366",415,0.0,Wee Heavy Winter Ale,WA
385,623,Hale's Ales #3,4301 Leary Way NW,,Seattle,Washington,98107,United States,1-206-706-1544,,,,2010-07-22T16:00:20-04:00,"47.6592, -122.366",824,0.0,Red Menace Big Amber,WA
386,623,Hale's Ales #3,4301 Leary Way NW,,Seattle,Washington,98107,United States,1-206-706-1544,,,,2010-07-22T16:00:20-04:00,"47.6592, -122.366",887,0.0,Pale Ale,WA
387,623,Hale's Ales #3,4301 Leary Way NW,,Seattle,Washington,98107,United States,1-206-706-1544,,,,2010-07-22T16:00:20-04:00,"47.6592, -122.366",897,0.0,El Jefe Weizen Ale,WA
388,623,Hale's Ales #3,4301 Leary Way NW,,Seattle,Washington,98107,United States,1-206-706-1544,,,,2010-07-22T16:00:20-04:00,"47.6592, -122.366",916,0.0,Mongoose IPA,WA
393,707,Jack's Brewing,39176 Argonaut Way,,Fremont,California,94538,United States,1-510-796-2036,,,,2010-07-22T16:00:20-04:00,"37.5441, -121.988",302,5.6,Hefeweizen,CA
394,707,Jack's Brewing,39176 Argonaut Way,,Fremont,California,94538,United States,1-510-796-2036,,,,2010-07-22T16:00:20-04:00,"37.5441, -121.988",303,0.0,Red Ale,CA
395,707,Jack's Brewing,39176 Argonaut Way,,Fremont,California,94538,United States,1-510-796-2036,,,,2010-07-22T16:00:20-04:00,"37.5441, -121.988",304,5.8,Penalty Shot Porter,CA
396,707,Jack's Brewing,39176 Argonaut Way,,Fremont,California,94538,United States,1-510-796-2036,,,,2010-07-22T16:00:20-04:00,"37.5441, -121.988",305,7.5,India Pale Ale,CA
397,707,Jack's Brewing,39176 Argonaut Way,,Fremont,California,94538,United States,1-510-796-2036,,,,2010-07-22T16:00:20-04:00,"37.5441, -121.988",306,5.6,Grid Iron Amber Ale,CA
398,707,Jack's Brewing,39176 Argonaut Way,,Fremont,California,94538,United States,1-510-796-2036,,,,2010-07-22T16:00:20-04:00,"37.5441, -121.988",307,3.5,Boys of Summer Wheat,CA
399,803,Lost Coast Brewery,617 Fourth Street,,Eureka,California,95501,United States,1-707-445-4484,http://www.lostcoast.com/,,,2010-07-22T16:00:20-04:00,"40.8032, -124.165",904,6.5,Indica India Pale Ale,CA
400,849,Mendocino Brewing - Ukiah,1601 Airport Road,,Ukiah,California,95482,United States,1-707-463-2627,,,,2010-07-22T16:00:20-04:00,"39.1326, -123.201",909,10.5,Talon,CA
402,966,Pacific Rim Brewing,9832 14th Avenue SW,,Seattle,Washington,98106,United States,1-206-764-3844,,,,2010-07-22T16:00:20-04:00,"47.5143, -122.353",787,11.0,Castaway Barley Wine Winter Ale,WA
403,966,Pacific Rim Brewing,9832 14th Avenue SW,,Seattle,Washington,98106,United States,1-206-764-3844,,,,2010-07-22T16:00:20-04:00,"47.5143, -122.353",788,0.0,Blacktop Porter,WA
404,966,Pacific Rim Brewing,9832 14th Avenue SW,,Seattle,Washington,98106,United States,1-206-764-3844,,,,2010-07-22T16:00:20-04:00,"47.5143, -122.353",789,0.0,Puget Porter,WA
405,966,Pacific Rim Brewing,9832 14th Avenue SW,,Seattle,Washington,98106,United States,1-206-764-3844,,,,2010-07-22T16:00:20-04:00,"47.5143, -122.353",790,0.0,Rat City IPA,WA
406,966,Pacific Rim Brewing,9832 14th Avenue SW,,Seattle,Washington,98106,United States,1-206-764-3844,,,,2010-07-22T16:00:20-04:00,"47.5143, -122.353",791,0.0,Fauntleroy Stout,WA
407,966,Pacific Rim Brewing,9832 14th Avenue SW,,Seattle,Washington,98106,United States,1-206-764-3844,,,,2010-07-22T16:00:20-04:00,"47.5143, -122.353",792,0.0,Alki Ale,WA
408,966,Pacific Rim Brewing,9832 14th Avenue SW,,Seattle,Washington,98106,United States,1-206-764-3844,,,,2010-07-22T16:00:20-04:00,"47.5143, -122.353",793,0.0,Vashon Old Stock Ale,WA
409,966,Pacific Rim Brewing,9832 14th Avenue SW,,Seattle,Washington,98106,United States,1-206-764-3844,,,,2010-07-22T16:00:20-04:00,"47.5143, -122.353",794,0.0,Admiral ESB,WA
410,966,Pacific Rim Brewing,9832 14th Avenue SW,,Seattle,Washington,98106,United States,1-206-764-3844,,,,2010-07-22T16:00:20-04:00,"47.5143, -122.353",795,0.0,Driftwood Ale,WA
411,39,Anchor Brewing,1705 Mariposa Street,,San Francisco,California,94107,United States,1-415-863-8350,,,,2010-07-22T16:00:20-04:00,"37.7635, -122.401",18,10.0,Old Foghorn 2001,CA
412,39,Anchor Brewing,1705 Mariposa Street,,San Francisco,California,94107,United States,1-415-863-8350,,,,2010-07-22T16:00:20-04:00,"37.7635, -122.401",54,0.0,Christmas Ale 2007,CA
413,39,Anchor Brewing,1705 Mariposa Street,,San Francisco,California,94107,United States,1-415-863-8350,,,,2010-07-22T16:00:20-04:00,"37.7635, -122.401",181,5.5,Bock,CA
414,39,Anchor Brewing,1705 Mariposa Street,,San Francisco,California,94107,United States,1-415-863-8350,,,,2010-07-22T16:00:20-04:00,"37.7635, -122.401",383,9.4,Old Foghorn 2006,CA
427,236,Breckenridge Brewery,471 Kalamath Street,,Denver,Colorado,80204,United States,303-623-2739,http://www.breckbrew.com/,,,2010-07-22T16:00:20-04:00,"39.7236, -105.001",62,0.0,Oatmeal Stout,CO
428,236,Breckenridge Brewery,471 Kalamath Street,,Denver,Colorado,80204,United States,303-623-2739,http://www.breckbrew.com/,,,2010-07-22T16:00:20-04:00,"39.7236, -105.001",137,7.8,471 Extra ESB,CO
429,236,Breckenridge Brewery,471 Kalamath Street,,Denver,Colorado,80204,United States,303-623-2739,http://www.breckbrew.com/,,,2010-07-22T16:00:20-04:00,"39.7236, -105.001",225,0.0,Summer Bright Ale,CO
430,236,Breckenridge Brewery,471 Kalamath Street,,Denver,Colorado,80204,United States,303-623-2739,http://www.breckbrew.com/,,,2010-07-22T16:00:20-04:00,"39.7236, -105.001",333,5.4,Avalanche Amber,CO
431,236,Breckenridge Brewery,471 Kalamath Street,,Denver,Colorado,80204,United States,303-623-2739,http://www.breckbrew.com/,,,2010-07-22T16:00:20-04:00,"39.7236, -105.001",334,0.0,Hefe Proper Ale,CO
432,236,Breckenridge Brewery,471 Kalamath Street,,Denver,Colorado,80204,United States,303-623-2739,http://www.breckbrew.com/,,,2010-07-22T16:00:20-04:00,"39.7236, -105.001",362,9.2,471 Double IPA,CO
433,236,Breckenridge Brewery,471 Kalamath Street,,Denver,Colorado,80204,United States,303-623-2739,http://www.breckbrew.com/,,,2010-07-22T16:00:20-04:00,"39.7236, -105.001",663,0.0,Trademark English Pale,CO
444,447,Dick's Brewing,5945 Prather Road,,Centralia,Washington,98531,United States,1-800-586-7760,,,,2010-07-22T16:00:20-04:00,"46.7713, -123.007",142,0.0,Pale Ale,WA
445,447,Dick's Brewing,5945 Prather Road,,Centralia,Washington,98531,United States,1-800-586-7760,,,,2010-07-22T16:00:20-04:00,"46.7713, -123.007",143,4.4,Silk Lady,WA
446,447,Dick's Brewing,5945 Prather Road,,Centralia,Washington,98531,United States,1-800-586-7760,,,,2010-07-22T16:00:20-04:00,"46.7713, -123.007",144,5.2,Danger Ale,WA
447,447,Dick's Brewing,5945 Prather Road,,Centralia,Washington,98531,United States,1-800-586-7760,,,,2010-07-22T16:00:20-04:00,"46.7713, -123.007",145,5.2,Irish Style Ale,WA
448,447,Dick's Brewing,5945 Prather Road,,Centralia,Washington,98531,United States,1-800-586-7760,,,,2010-07-22T16:00:20-04:00,"46.7713, -123.007",820,8.5,Double Diamond Winter,WA
449,447,Dick's Brewing,5945 Prather Road,,Centralia,Washington,98531,United States,1-800-586-7760,,,,2010-07-22T16:00:20-04:00,"46.7713, -123.007",831,8.5,Bottleworks IPA,WA
450,447,Dick's Brewing,5945 Prather Road,,Centralia,Washington,98531,United States,1-800-586-7760,,,,2010-07-22T16:00:20-04:00,"46.7713, -123.007",924,0.0,Cream Stout,WA
451,447,Dick's Brewing,5945 Prather Road,,Centralia,Washington,98531,United States,1-800-586-7760,,,,2010-07-22T16:00:20-04:00,"46.7713, -123.007",925,10.0,Grand Cru,WA
452,447,Dick's Brewing,5945 Prather Road,,Centralia,Washington,98531,United States,1-800-586-7760,,,,2010-07-22T16:00:20-04:00,"46.7713, -123.007",928,5.5,IPA,WA
453,447,Dick's Brewing,5945 Prather Road,,Centralia,Washington,98531,United States,1-800-586-7760,,,,2010-07-22T16:00:20-04:00,"46.7713, -123.007",930,5.5,Best Bitter,WA
455,481,Eel River Brewing,1777 Alamar Way,,Fortuna,California,95540,United States,1-707-725-2739,http://eelriverbrewing.com/,,,2010-07-22T16:00:20-04:00,"40.5793, -124.153",121,9.7,Triple Exultation Old Ale,CA
456,481,Eel River Brewing,1777 Alamar Way,,Fortuna,California,95540,United States,1-707-725-2739,http://eelriverbrewing.com/,,,2010-07-22T16:00:20-04:00,"40.5793, -124.153",185,7.0,Certified Organic India Pale Ale,CA
457,481,Eel River Brewing,1777 Alamar Way,,Fortuna,California,95540,United States,1-707-725-2739,http://eelriverbrewing.com/,,,2010-07-22T16:00:20-04:00,"40.5793, -124.153",186,5.5,Certified Organic Porter,CA
458,481,Eel River Brewing,1777 Alamar Way,,Fortuna,California,95540,United States,1-707-725-2739,http://eelriverbrewing.com/,,,2010-07-22T16:00:20-04:00,"40.5793, -124.153",187,0.0,Certified Organic Extra Pale Ale,CA
459,481,Eel River Brewing,1777 Alamar Way,,Fortuna,California,95540,United States,1-707-725-2739,http://eelriverbrewing.com/,,,2010-07-22T16:00:20-04:00,"40.5793, -124.153",188,4.8,Certified Organic Amber Ale,CA
460,494,Elliott Bay Brewery and Pub,4720 California Avenue SW,,Seattle,Washington,98116,United States,1-206-932-8695,,,,2010-07-22T16:00:20-04:00,"47.5604, -122.387",781,0.0,Dry Hopped IPA,WA
461,494,Elliott Bay Brewery and Pub,4720 California Avenue SW,,Seattle,Washington,98116,United States,1-206-932-8695,,,,2010-07-22T16:00:20-04:00,"47.5604, -122.387",782,5.75,No Doubt Stout,WA
462,494,Elliott Bay Brewery and Pub,4720 California Avenue SW,,Seattle,Washington,98116,United States,1-206-932-8695,,,,2010-07-22T16:00:20-04:00,"47.5604, -122.387",783,7.5,Riot Ale,WA
463,494,Elliott Bay Brewery and Pub,4720 California Avenue SW,,Seattle,Washington,98116,United States,1-206-932-8695,,,,2010-07-22T16:00:20-04:00,"47.5604, -122.387",784,5.5,IPA,WA
464,494,Elliott Bay Brewery and Pub,4720 California Avenue SW,,Seattle,Washington,98116,United States,1-206-932-8695,,,,2010-07-22T16:00:20-04:00,"47.5604, -122.387",785,5.5,Alembic Pale,WA
465,494,Elliott Bay Brewery and Pub,4720 California Avenue SW,,Seattle,Washington,98116,United States,1-206-932-8695,,,,2010-07-22T16:00:20-04:00,"47.5604, -122.387",786,4.5,Luna Weizen,WA
466,501,Empyrean Brewing Company,729 Q Street,,Lincoln,Nebraska,68508,United States,1-402-434-5959,,,,2010-07-22T16:00:20-04:00,"40.8155, -96.7105",9,0.0,Espresso Porter,NE
467,501,Empyrean Brewing Company,729 Q Street,,Lincoln,Nebraska,68508,United States,1-402-434-5959,,,,2010-07-22T16:00:20-04:00,"40.8155, -96.7105",64,0.0,Festive Ale 2007,NE
468,501,Empyrean Brewing Company,729 Q Street,,Lincoln,Nebraska,68508,United States,1-402-434-5959,,,,2010-07-22T16:00:20-04:00,"40.8155, -96.7105",218,0.0,Summer Common,NE
469,501,Empyrean Brewing Company,729 Q Street,,Lincoln,Nebraska,68508,United States,1-402-434-5959,,,,2010-07-22T16:00:20-04:00,"40.8155, -96.7105",238,0.0,Dark German Lager,NE
470,501,Empyrean Brewing Company,729 Q Street,,Lincoln,Nebraska,68508,United States,1-402-434-5959,,,,2010-07-22T16:00:20-04:00,"40.8155, -96.7105",246,0.0,Fallen Angel Sweet Stout,NE
471,501,Empyrean Brewing Company,729 Q Street,,Lincoln,Nebraska,68508,United States,1-402-434-5959,,,,2010-07-22T16:00:20-04:00,"40.8155, -96.7105",252,0.0,Eccentric Belgian Wheat,NE
472,501,Empyrean Brewing Company,729 Q Street,,Lincoln,Nebraska,68508,United States,1-402-434-5959,,,,2010-07-22T16:00:20-04:00,"40.8155, -96.7105",534,0.0,Festive Ale 2006,NE
473,584,Golden Valley Brewery and Pub,980 NE Fourth Street,,McMinnville,Oregon,97128,United States,1-503-472-2739,http://www.goldenvalleybrewery.com/,,,2010-07-22T16:00:20-04:00,"45.2104, -123.189",126,6.1,Geist Bock,OR
474,584,Golden Valley Brewery and Pub,980 NE Fourth Street,,McMinnville,Oregon,97128,United States,1-503-472-2739,http://www.goldenvalleybrewery.com/,,,2010-07-22T16:00:20-04:00,"45.2104, -123.189",902,0.0,Chehalem Mountain IPA,OR
477,706,Jack Russell Brewing,2380 Larsen Drive,,Camino,California,95709,United States,1-877-457-2725,,,,2010-07-22T16:00:20-04:00,"38.7563, -120.679",189,6.7,Farm House Ale,CA
478,706,Jack Russell Brewing,2380 Larsen Drive,,Camino,California,95709,United States,1-877-457-2725,,,,2010-07-22T16:00:20-04:00,"49.1482, -122.862",189,6.7,Farm House Ale,CA
480,919,North Coast Brewing Company,455 North Main Street,,Fort Bragg,California,95437,United States,1-707-964-2739,http://www.northcoastbrewing.com/home.htm,,,2010-07-22T16:00:20-04:00,"39.4466, -123.806",152,11.7,Old Stock Ale 2007,CA
481,919,North Coast Brewing Company,455 North Main Street,,Fort Bragg,California,95437,United States,1-707-964-2739,http://www.northcoastbrewing.com/home.htm,,,2010-07-22T16:00:20-04:00,"39.4466, -123.806",410,9.0,Brother Thelonious,CA
482,919,North Coast Brewing Company,455 North Main Street,,Fort Bragg,California,95437,United States,1-707-964-2739,http://www.northcoastbrewing.com/home.htm,,,2010-07-22T16:00:20-04:00,"39.4466, -123.806",832,9.0,Old Rasputin Russian Imperial Stout,CA
483,919,North Coast Brewing Company,455 North Main Street,,Fort Bragg,California,95437,United States,1-707-964-2739,http://www.northcoastbrewing.com/home.htm,,,2010-07-22T16:00:20-04:00,"39.4466, -123.806",907,11.4,Old Stock Ale 2004,CA
484,935,Odell Brewing,800 East Lincoln Avenue,,Fort Collins,Colorado,80524,United States,1-888-887-2797,,,,2010-07-22T16:00:20-04:00,"40.5894, -105.063",28,7.0,Odell IPA,CO
485,935,Odell Brewing,800 East Lincoln Avenue,,Fort Collins,Colorado,80524,United States,1-888-887-2797,,,,2010-07-22T16:00:20-04:00,"40.5894, -105.063",30,4.8,Cutthroat Porter,CO
486,935,Odell Brewing,800 East Lincoln Avenue,,Fort Collins,Colorado,80524,United States,1-888-887-2797,,,,2010-07-22T16:00:20-04:00,"40.5894, -105.063",63,6.0,Isolation Ale,CO
487,935,Odell Brewing,800 East Lincoln Avenue,,Fort Collins,Colorado,80524,United States,1-888-887-2797,,,,2010-07-22T16:00:20-04:00,"40.5894, -105.063",138,6.5,Odell Red Ale,CO
488,935,Odell Brewing,800 East Lincoln Avenue,,Fort Collins,Colorado,80524,United States,1-888-887-2797,,,,2010-07-22T16:00:20-04:00,"40.5894, -105.063",208,5.3,90 Shilling,CO
489,935,Odell Brewing,800 East Lincoln Avenue,,Fort Collins,Colorado,80524,United States,1-888-887-2797,,,,2010-07-22T16:00:20-04:00,"40.5894, -105.063",231,8.1,Double Pilsner,CO
490,935,Odell Brewing,800 East Lincoln Avenue,,Fort Collins,Colorado,80524,United States,1-888-887-2797,,,,2010-07-22T16:00:20-04:00,"40.5894, -105.063",335,5.1,Levity Amber Ale,CO
491,935,Odell Brewing,800 East Lincoln Avenue,,Fort Collins,Colorado,80524,United States,1-888-887-2797,,,,2010-07-22T16:00:20-04:00,"40.5894, -105.063",336,4.6,Easy Street Wheat,CO
492,935,Odell Brewing,800 East Lincoln Avenue,,Fort Collins,Colorado,80524,United States,1-888-887-2797,,,,2010-07-22T16:00:20-04:00,"40.5894, -105.063",374,7.1,Imperial Stout,CO
493,935,Odell Brewing,800 East Lincoln Avenue,,Fort Collins,Colorado,80524,United States,1-888-887-2797,,,,2010-07-22T16:00:20-04:00,"40.5894, -105.063",655,0.0,Bobby,CO
494,935,Odell Brewing,800 East Lincoln Avenue,,Fort Collins,Colorado,80524,United States,1-888-887-2797,,,,2010-07-22T16:00:20-04:00,"40.5894, -105.063",879,5.3,5 Barrel Pale Ale,CO
495,950,Oregon Trail Brewery,341 SW Second Street,,Corvallis,Oregon,97333,United States,1-503-758-3257,,,,2010-07-22T16:00:20-04:00,"44.5613, -123.261",197,9.1,Bourbon Barrel Porter,OR
496,1064,Rock Bottom Restaurant & Brewery - Denver,1001 16th Street #A-100,,Denver,Colorado,80202,United States,1-303-534-7616,,,,2010-07-22T16:00:20-04:00,"39.7472, -104.995",123,0.0,Falcon Pale Ale,CO
499,62,Avery Brewing Company,5763 Arapahoe Avenue,,Boulder,Colorado,80303,United States,1-877-844-5679,http://www.averybrewing.com/,,"Established in 1993, Avery Brewing Co. is a family owned and operated micro-brewery dedicated to brewing the finest quality English and Belgian style ales.. From humble beginnings, brewing 800 barrels of three different beers in 1994, we have progressed to brewing 13,000 barrels of twenty different beers in 2007. We attribute this success to beer drinkers gravitating to beers with more interesting flavor profiles. The unique flavor complexity of Avery beers occurs through a combination of sparing no expense with regard to ingredients and our hopping methods. Sparing no expense means using lots of specialty malts, imported hops, such as Styrian Goldings, and imported Belgian candy sugar.",2010-07-22T16:00:20-04:00,"40.0166, -105.219",151,9.46,Fourteen,CO
500,62,Avery Brewing Company,5763 Arapahoe Avenue,,Boulder,Colorado,80303,United States,1-877-844-5679,http://www.averybrewing.com/,,"Established in 1993, Avery Brewing Co. is a family owned and operated micro-brewery dedicated to brewing the finest quality English and Belgian style ales.. From humble beginnings, brewing 800 barrels of three different beers in 1994, we have progressed to brewing 13,000 barrels of twenty different beers in 2007. We attribute this success to beer drinkers gravitating to beers with more interesting flavor profiles. The unique flavor complexity of Avery beers occurs through a combination of sparing no expense with regard to ingredients and our hopping methods. Sparing no expense means using lots of specialty malts, imported hops, such as Styrian Goldings, and imported Belgian candy sugar.",2010-07-22T16:00:20-04:00,"40.0166, -105.219",192,16.03,Mephistopheles Stout,CO
519,385,Clipper City Brewing Co.,4615-B Hollins Ferry Road,,Baltimore,Maryland,21227,United States,1-410-247-7822,http://www.ccbeer.com/,,"At Clipper City our mission is to bring back the local brewery, and to do it in such a way that we are more than just a fringe player, but a positive part of our area. To accomplish this mission we have created a broad portfolio of products and brands with enough diversity that we have at least one beer that can appeal to everyone. Whether your preference is for a classic American style lager beer, or a big, challenging Hop Cubed Ale, we have a something that will suit your taste. Our goal is to brew beers for people who dare to walk up to the edge of the mountain and actually jump forward.  Our beers are for those who chart a bolder course.   Our brewery is named for the famed Clipper ship - first developed and built in our home port of Baltimore. The Clipper ship is the symbol for a strong nautical and maritime heritage with a commitment to craftsmanship of the highest caliber. It captures both the hardy nature of our working class history and the romance of what lies on the seas ahead. Why be normal when you can be EXTRAARGHdinary?  We believe in bringing beer drinkers the quality and flavor of a handcrafted beer while supporting the local communities we serve.",2010-07-22T16:00:20-04:00,"39.2308, -76.6751",288,10.0,Yule Tide,MD
520,475,Eagle Brewing,625 Fourth Street,,Mukilteo,Washington,98275,United States,1-425-348-8088,,,,2010-07-22T16:00:20-04:00,,730,0.0,Golden,WA
521,496,Elysian Brewery & Public House,1221 East Pike Street,,Seattle,Washington,98122,United States,1-206-860-1920,http://www.elysianbrewing.com/,,,2010-07-22T16:00:20-04:00,"47.614, -122.316",683,6.3,The Immortal IPA,WA
522,496,Elysian Brewery & Public House,1221 East Pike Street,,Seattle,Washington,98122,United States,1-206-860-1920,http://www.elysianbrewing.com/,,,2010-07-22T16:00:20-04:00,"47.614, -122.316",684,6.6,Whoville Weizenbock,WA
523,496,Elysian Brewery & Public House,1221 East Pike Street,,Seattle,Washington,98122,United States,1-206-860-1920,http://www.elysianbrewing.com/,,,2010-07-22T16:00:20-04:00,"47.614, -122.316",688,6.2,Avatar Jasmine IPA,WA
524,496,Elysian Brewery & Public House,1221 East Pike Street,,Seattle,Washington,98122,United States,1-206-860-1920,http://www.elysianbrewing.com/,,,2010-07-22T16:00:20-04:00,"47.614, -122.316",689,0.0,BiFrst Winter Ale,WA
525,496,Elysian Brewery & Public House,1221 East Pike Street,,Seattle,Washington,98122,United States,1-206-860-1920,http://www.elysianbrewing.com/,,,2010-07-22T16:00:20-04:00,"47.614, -122.316",690,4.8,Elysian Fields Pale Ale,WA
526,496,Elysian Brewery & Public House,1221 East Pike Street,,Seattle,Washington,98122,United States,1-206-860-1920,http://www.elysianbrewing.com/,,,2010-07-22T16:00:20-04:00,"47.614, -122.316",691,4.8,Loki,WA
527,496,Elysian Brewery & Public House,1221 East Pike Street,,Seattle,Washington,98122,United States,1-206-860-1920,http://www.elysianbrewing.com/,,,2010-07-22T16:00:20-04:00,"47.614, -122.316",692,4.7,Zephyrus Pilsner,WA
528,496,Elysian Brewery & Public House,1221 East Pike Street,,Seattle,Washington,98122,United States,1-206-860-1920,http://www.elysianbrewing.com/,,,2010-07-22T16:00:20-04:00,"47.614, -122.316",693,5.4,Perseus Porter,WA
529,496,Elysian Brewery & Public House,1221 East Pike Street,,Seattle,Washington,98122,United States,1-206-860-1920,http://www.elysianbrewing.com/,,,2010-07-22T16:00:20-04:00,"47.614, -122.316",694,5.9,The Wise ESB,WA
530,496,Elysian Brewery & Public House,1221 East Pike Street,,Seattle,Washington,98122,United States,1-206-860-1920,http://www.elysianbrewing.com/,,,2010-07-22T16:00:20-04:00,"47.614, -122.316",695,5.3,Ambrosia Maibock,WA
531,496,Elysian Brewery & Public House,1221 East Pike Street,,Seattle,Washington,98122,United States,1-206-860-1920,http://www.elysianbrewing.com/,,,2010-07-22T16:00:20-04:00,"47.614, -122.316",696,0.0,Bte Blanche,WA
534,708,Jacob Leinenkugel Brewing Company,1 Jefferson Avenue,,Chippewa Falls,Wisconsin,54729,United States,1-715-723-5557,http://www.leinie.com/welcome.html,,,2010-07-22T16:00:20-04:00,"44.9449, -91.3968",232,4.9,Creamy Dark,WI
536,812,Magic Hat,5 Bartlett Bay Road,,South Burlington,Vermont,5403,United States,1-802-658-2739,http://www.magichat.net/,,"Burlington microbrewers of Humble Patience, Fat Angel, #9, Blind Faith IPA, and Heart of Darkness Oatmeal Stout.",2010-07-22T16:00:20-04:00,"44.4284, -73.2131",1,4.5,Hocus Pocus,VT
544,1029,"Pyramid Alehouse, Brewery and Restaurant - Berkeley",901 Gilman Street,,Berkeley,California,94710,United States,1-510-528-9880,,,,2010-07-22T16:00:20-04:00,"47.5917, -122.335",120,7.5,Imperial Hefeweizen,CA
545,1029,"Pyramid Alehouse, Brewery and Restaurant - Berkeley",901 Gilman Street,,Berkeley,California,94710,United States,1-510-528-9880,,,,2010-07-22T16:00:20-04:00,"37.8806, -122.3",120,7.5,Imperial Hefeweizen,CA
546,1074,Roost Brewery,200 East Campbell Avenue,,Campbell,California,95008,United States,1-408-866-2699,,,,2010-07-22T16:00:20-04:00,"37.2869, -121.946",291,0.0,Porter,CA
547,1074,Roost Brewery,200 East Campbell Avenue,,Campbell,California,95008,United States,1-408-866-2699,,,,2010-07-22T16:00:20-04:00,"37.2869, -121.946",292,0.0,ESB,CA
548,1074,Roost Brewery,200 East Campbell Avenue,,Campbell,California,95008,United States,1-408-866-2699,,,,2010-07-22T16:00:20-04:00,"37.2869, -121.946",293,0.0,Pale Ale,CA
549,1074,Roost Brewery,200 East Campbell Avenue,,Campbell,California,95008,United States,1-408-866-2699,,,,2010-07-22T16:00:20-04:00,"37.2869, -121.946",294,0.0,Kristall Weizen,CA
560,1163,Snowshoe Brewing - Sonora,,,Sonora,California,,United States,,,,,2010-07-22T16:00:20-04:00,"37.9841, -120.382",295,6.0,ESB (Extra Special Blizzard),CA
571,515,Faultline Brewing #1,1235 Oakmead Parkway,,Sunnyvale,California,94086,United States,1-408-736-2739,,,,2010-07-22T16:00:20-04:00,"37.387, -121.993",320,0.0,India Pale Ale (IPA),CA
572,515,Faultline Brewing #1,1235 Oakmead Parkway,,Sunnyvale,California,94086,United States,1-408-736-2739,,,,2010-07-22T16:00:20-04:00,"37.387, -121.993",321,0.0,Belgian Tripel,CA
573,515,Faultline Brewing #1,1235 Oakmead Parkway,,Sunnyvale,California,94086,United States,1-408-736-2739,,,,2010-07-22T16:00:20-04:00,"37.387, -121.993",322,0.0,Belgian Abbey,CA
574,515,Faultline Brewing #1,1235 Oakmead Parkway,,Sunnyvale,California,94086,United States,1-408-736-2739,,,,2010-07-22T16:00:20-04:00,"37.387, -121.993",323,0.0,Stout,CA
575,515,Faultline Brewing #1,1235 Oakmead Parkway,,Sunnyvale,California,94086,United States,1-408-736-2739,,,,2010-07-22T16:00:20-04:00,"37.387, -121.993",324,0.0,Pale Ale,CA
576,515,Faultline Brewing #1,1235 Oakmead Parkway,,Sunnyvale,California,94086,United States,1-408-736-2739,,,,2010-07-22T16:00:20-04:00,"37.387, -121.993",325,0.0,Best Bitter,CA
577,515,Faultline Brewing #1,1235 Oakmead Parkway,,Sunnyvale,California,94086,United States,1-408-736-2739,,,,2010-07-22T16:00:20-04:00,"37.387, -121.993",326,0.0,Hefe Weizen,CA
578,515,Faultline Brewing #1,1235 Oakmead Parkway,,Sunnyvale,California,94086,United States,1-408-736-2739,,,,2010-07-22T16:00:20-04:00,"37.387, -121.993",327,0.0,Pilsner,CA
579,515,Faultline Brewing #1,1235 Oakmead Parkway,,Sunnyvale,California,94086,United States,1-408-736-2739,,,,2010-07-22T16:00:20-04:00,"37.387, -121.993",328,0.0,Klsch,CA
603,1124,Scuttlebutt Brewing,1524 West Marine View Drive,,Everett,Washington,98201,United States,1-425-257-9316,,,,2010-07-22T16:00:20-04:00,"47.9975, -122.214",731,5.6,Gale Force IPA,WA
604,1124,Scuttlebutt Brewing,1524 West Marine View Drive,,Everett,Washington,98201,United States,1-425-257-9316,,,,2010-07-22T16:00:20-04:00,"47.9975, -122.214",732,5.8,Porter,WA
605,1124,Scuttlebutt Brewing,1524 West Marine View Drive,,Everett,Washington,98201,United States,1-425-257-9316,,,,2010-07-22T16:00:20-04:00,"47.9975, -122.214",733,4.3,Nut Brown,WA
606,1124,Scuttlebutt Brewing,1524 West Marine View Drive,,Everett,Washington,98201,United States,1-425-257-9316,,,,2010-07-22T16:00:20-04:00,"47.9975, -122.214",734,5.1,Amber Ale,WA
607,1124,Scuttlebutt Brewing,1524 West Marine View Drive,,Everett,Washington,98201,United States,1-425-257-9316,,,,2010-07-22T16:00:20-04:00,"47.9975, -122.214",735,4.6,Hefe Weizen,WA
608,1124,Scuttlebutt Brewing,1524 West Marine View Drive,,Everett,Washington,98201,United States,1-425-257-9316,,,,2010-07-22T16:00:20-04:00,"47.9975, -122.214",736,0.0,Maibock,WA
609,1124,Scuttlebutt Brewing,1524 West Marine View Drive,,Everett,Washington,98201,United States,1-425-257-9316,,,,2010-07-22T16:00:20-04:00,"47.9975, -122.214",737,0.0,Sequoia Red,WA
610,1124,Scuttlebutt Brewing,1524 West Marine View Drive,,Everett,Washington,98201,United States,1-425-257-9316,,,,2010-07-22T16:00:20-04:00,"47.9975, -122.214",738,4.6,Homeport Blonde,WA
611,1136,Shipyard Brewing - Portland,86 Newbury Street,,Portland,Maine,4101,United States,1-800-789-0684,http://www.shipyard.com/,,"Since 1994, Shipyard Brewing Company has been brewing fine quality products with a wide range of style profiles. We use only top quality ingredients and pride ourselves on the consistency and freshness of our products. All our beer is hand crafted from recipes developed by master brewer Alan Pugsley, one of the most influential people in the craft brewing movement in North America.  Shipyard is available in 35+ states around the country and markets for our freshly brewed, hand-crafted beers continue to expand.",2010-07-22T16:00:20-04:00,"43.6619, -70.2489",195,0.0,Ringwood Brewery Old Thumper Extra Special Ale,ME
612,1136,Shipyard Brewing - Portland,86 Newbury Street,,Portland,Maine,4101,United States,1-800-789-0684,http://www.shipyard.com/,,"Since 1994, Shipyard Brewing Company has been brewing fine quality products with a wide range of style profiles. We use only top quality ingredients and pride ourselves on the consistency and freshness of our products. All our beer is hand crafted from recipes developed by master brewer Alan Pugsley, one of the most influential people in the craft brewing movement in North America.  Shipyard is available in 35+ states around the country and markets for our freshly brewed, hand-crafted beers continue to expand.",2010-07-22T16:00:20-04:00,"43.6619, -70.2489",196,5.1,Export Ale,ME
613,1175,Spanish Peaks Brewing,Polson MT 59860,,Polson,Montana,,United States,,http://www.blackdogales.com/,,,2010-07-22T16:00:20-04:00,"47.6959, -114.176",37,0.0,Winter Cheer,MT
614,1175,Spanish Peaks Brewing,Polson MT 59860,,Polson,Montana,,United States,,http://www.blackdogales.com/,,,2010-07-22T16:00:20-04:00,"47.6959, -114.176",136,0.0,American Pale Ale,MT
618,14,Aksarben Brewing (BOP),11337 Davenport St.,,Omaha,Nebraska,68130,United States,,,,This brewery is closed.,2010-07-22T16:00:20-04:00,"41.2603, -96.0903",465,0.0,Bourbon Imperial Stout,NE
619,14,Aksarben Brewing (BOP),11337 Davenport St.,,Omaha,Nebraska,68130,United States,,,,This brewery is closed.,2010-07-22T16:00:20-04:00,"41.2603, -96.0903",466,0.0,Witbier,NE
620,14,Aksarben Brewing (BOP),11337 Davenport St.,,Omaha,Nebraska,68130,United States,,,,This brewery is closed.,2010-07-22T16:00:20-04:00,"41.2603, -96.0903",467,0.0,Bavarian Bock,NE
621,14,Aksarben Brewing (BOP),11337 Davenport St.,,Omaha,Nebraska,68130,United States,,,,This brewery is closed.,2010-07-22T16:00:20-04:00,"41.2603, -96.0903",468,0.0,Heater,NE
622,14,Aksarben Brewing (BOP),11337 Davenport St.,,Omaha,Nebraska,68130,United States,,,,This brewery is closed.,2010-07-22T16:00:20-04:00,"41.2603, -96.0903",469,0.0,Harvest Brown,NE
623,14,Aksarben Brewing (BOP),11337 Davenport St.,,Omaha,Nebraska,68130,United States,,,,This brewery is closed.,2010-07-22T16:00:20-04:00,"41.2603, -96.0903",470,0.0,Brout,NE
624,28,Alltech's Lexington Brewing Company,401 Cross Street,,Lexington,Kentucky,40508,United States,1-859-887-3406,http://www.kentuckyale.com/kentuckyale/Index.html,,"Producers of Kentucky Ale brand.   Also a very esteemed educational institution, specializing in distilling sciences and fermentation sciences.",2010-07-22T16:00:20-04:00,"38.0501, -84.5088",878,0.0,Kentucky Ale,KY
661,540,Flying Dog Brewery,2401 Blake St.,,Denver,Colorado,80205,United States,303-292-5027,http://www.flyingdogales.com/,,,2010-07-22T16:00:20-04:00,"39.7582, -104.99",813,10.2,Horn Dog,CO
666,594,Grand Teton Brewing #2,430 Old Jackson Highway,,Victor,Idaho,83455,United States,1-208-787-9000,http://www.grandtetonbrewing.com/,,,2010-07-22T16:00:20-04:00,"43.5984, -111.108",496,0.0,Teton Ale,ID
667,641,Hawks Brewing,,,Roseburg,Oregon,97470,United States,1-541-679-5778,,,(No longer brewing),2010-07-22T16:00:20-04:00,"43.2165, -123.342",803,8.0,Super Natural Oatmeal Stout,OR
668,641,Hawks Brewing,,,Roseburg,Oregon,97470,United States,1-541-679-5778,,,(No longer brewing),2010-07-22T16:00:20-04:00,"43.2165, -123.342",807,9.9,Imperial Gold Malt Liquor,OR
669,691,Independence Brew Pub,1150 Filbert Street,,Philadelphia,Pennsylvania,19107,United States,1-215-922-4292,http://www.independencebrewpub.com/,,,2010-07-22T16:00:20-04:00,"39.9526, -75.1594",941,5.5,Red Ale,PA
670,691,Independence Brew Pub,1150 Filbert Street,,Philadelphia,Pennsylvania,19107,United States,1-215-922-4292,http://www.independencebrewpub.com/,,,2010-07-22T16:00:20-04:00,"39.9526, -75.1594",961,0.0,Oatmeal Stout,PA
671,691,Independence Brew Pub,1150 Filbert Street,,Philadelphia,Pennsylvania,19107,United States,1-215-922-4292,http://www.independencebrewpub.com/,,,2010-07-22T16:00:20-04:00,"39.9526, -75.1594",962,0.0,Belgian Singel,PA
672,691,Independence Brew Pub,1150 Filbert Street,,Philadelphia,Pennsylvania,19107,United States,1-215-922-4292,http://www.independencebrewpub.com/,,,2010-07-22T16:00:20-04:00,"39.9526, -75.1594",963,0.0,IPA,PA
673,691,Independence Brew Pub,1150 Filbert Street,,Philadelphia,Pennsylvania,19107,United States,1-215-922-4292,http://www.independencebrewpub.com/,,,2010-07-22T16:00:20-04:00,"39.9526, -75.1594",964,0.0,Kolsch,PA
674,717,Jobber's Canyon Restaurant & Brewery,,,Omaha,Nebraska,,United States,,,,,2010-07-22T16:00:20-04:00,"41.254, -95.9993",861,0.0,Porter,NE
675,717,Jobber's Canyon Restaurant & Brewery,,,Omaha,Nebraska,,United States,,,,,2010-07-22T16:00:20-04:00,"41.254, -95.9993",862,0.0,Oktoberfest,NE
676,717,Jobber's Canyon Restaurant & Brewery,,,Omaha,Nebraska,,United States,,,,,2010-07-22T16:00:20-04:00,"41.254, -95.9993",863,0.0,Tip Top Pale Ale,NE
677,779,Left Hand Brewing Company,1265 Boston Avenue,,Longmont,Colorado,80501,United States,1-303-772-0258,http://www.lefthandbrewing.com/,,,2010-07-22T16:00:20-04:00,"40.1587, -105.113",3,9.1,Widdershins Barleywine,CO
678,779,Left Hand Brewing Company,1265 Boston Avenue,,Longmont,Colorado,80501,United States,1-303-772-0258,http://www.lefthandbrewing.com/,,,2010-07-22T16:00:20-04:00,"40.1587, -105.113",12,4.0,JuJu Ginger,CO
679,779,Left Hand Brewing Company,1265 Boston Avenue,,Longmont,Colorado,80501,United States,1-303-772-0258,http://www.lefthandbrewing.com/,,,2010-07-22T16:00:20-04:00,"40.1587, -105.113",72,0.0,Goosinator Smoked Doppelbock 2007,CO
680,779,Left Hand Brewing Company,1265 Boston Avenue,,Longmont,Colorado,80501,United States,1-303-772-0258,http://www.lefthandbrewing.com/,,,2010-07-22T16:00:20-04:00,"40.1587, -105.113",73,8.6,Snow Bound Winter Ale,CO
681,779,Left Hand Brewing Company,1265 Boston Avenue,,Longmont,Colorado,80501,United States,1-303-772-0258,http://www.lefthandbrewing.com/,,,2010-07-22T16:00:20-04:00,"40.1587, -105.113",74,6.6,Warrior IPA,CO
682,779,Left Hand Brewing Company,1265 Boston Avenue,,Longmont,Colorado,80501,United States,1-303-772-0258,http://www.lefthandbrewing.com/,,,2010-07-22T16:00:20-04:00,"40.1587, -105.113",206,0.0,Sawtooth Ale,CO
683,779,Left Hand Brewing Company,1265 Boston Avenue,,Longmont,Colorado,80501,United States,1-303-772-0258,http://www.lefthandbrewing.com/,,,2010-07-22T16:00:20-04:00,"40.1587, -105.113",207,0.0,Pole Star Pilsner,CO
684,779,Left Hand Brewing Company,1265 Boston Avenue,,Longmont,Colorado,80501,United States,1-303-772-0258,http://www.lefthandbrewing.com/,,,2010-07-22T16:00:20-04:00,"40.1587, -105.113",213,0.0,Black Jack Porter,CO
687,841,McKenzie Brew House,451 Wilmington-West Chester Pike,,Glen Mills,Pennsylvania,19342,United States,1-610-361-9800,http://www.mckenziebrewhouse.com,,,2010-07-22T16:00:20-04:00,"39.8658, -75.5442",990,0.0,Irish Red Ale,PA
688,841,McKenzie Brew House,451 Wilmington-West Chester Pike,,Glen Mills,Pennsylvania,19342,United States,1-610-361-9800,http://www.mckenziebrewhouse.com,,,2010-07-22T16:00:20-04:00,"39.8658, -75.5442",991,8.0,Abbey 8,PA
689,841,McKenzie Brew House,451 Wilmington-West Chester Pike,,Glen Mills,Pennsylvania,19342,United States,1-610-361-9800,http://www.mckenziebrewhouse.com,,,2010-07-22T16:00:20-04:00,"39.8658, -75.5442",992,6.2,Farmhouse Saison,PA
690,841,McKenzie Brew House,451 Wilmington-West Chester Pike,,Glen Mills,Pennsylvania,19342,United States,1-610-361-9800,http://www.mckenziebrewhouse.com,,,2010-07-22T16:00:20-04:00,"39.8658, -75.5442",993,6.6,East Kent IPA,PA
691,841,McKenzie Brew House,451 Wilmington-West Chester Pike,,Glen Mills,Pennsylvania,19342,United States,1-610-361-9800,http://www.mckenziebrewhouse.com,,,2010-07-22T16:00:20-04:00,"39.8658, -75.5442",994,6.5,French Country Spring Beer,PA
692,841,McKenzie Brew House,451 Wilmington-West Chester Pike,,Glen Mills,Pennsylvania,19342,United States,1-610-361-9800,http://www.mckenziebrewhouse.com,,,2010-07-22T16:00:20-04:00,"39.8658, -75.5442",995,5.7,Black Lab Stout,PA
693,841,McKenzie Brew House,451 Wilmington-West Chester Pike,,Glen Mills,Pennsylvania,19342,United States,1-610-361-9800,http://www.mckenziebrewhouse.com,,,2010-07-22T16:00:20-04:00,"39.8658, -75.5442",996,5.5,Old Rogue Pale Ale,PA
694,841,McKenzie Brew House,451 Wilmington-West Chester Pike,,Glen Mills,Pennsylvania,19342,United States,1-610-361-9800,http://www.mckenziebrewhouse.com,,,2010-07-22T16:00:20-04:00,"39.8658, -75.5442",997,4.0,Unicorn Amber Ale,PA
695,841,McKenzie Brew House,451 Wilmington-West Chester Pike,,Glen Mills,Pennsylvania,19342,United States,1-610-361-9800,http://www.mckenziebrewhouse.com,,,2010-07-22T16:00:20-04:00,"39.8658, -75.5442",998,3.5,Light Lager,PA
698,879,Montana Brewing,113 North Broadway,,Billings,Montana,59101,United States,1-406-252-9200,,,Montana Brewing Company...small brewery...BIG BEER!,2010-07-22T16:00:20-04:00,"45.7822, -108.506",89,0.0,Espresso Porter,MT
699,879,Montana Brewing,113 North Broadway,,Billings,Montana,59101,United States,1-406-252-9200,,,Montana Brewing Company...small brewery...BIG BEER!,2010-07-22T16:00:20-04:00,"45.7822, -108.506",90,0.0,Harvest Ale,MT
700,879,Montana Brewing,113 North Broadway,,Billings,Montana,59101,United States,1-406-252-9200,,,Montana Brewing Company...small brewery...BIG BEER!,2010-07-22T16:00:20-04:00,"45.7822, -108.506",91,0.0,Stillwater Rye,MT
701,879,Montana Brewing,113 North Broadway,,Billings,Montana,59101,United States,1-406-252-9200,,,Montana Brewing Company...small brewery...BIG BEER!,2010-07-22T16:00:20-04:00,"45.7822, -108.506",92,0.0,Sharptail Pale Ale,MT
702,879,Montana Brewing,113 North Broadway,,Billings,Montana,59101,United States,1-406-252-9200,,,Montana Brewing Company...small brewery...BIG BEER!,2010-07-22T16:00:20-04:00,"45.7822, -108.506",93,0.0,Fat Belly Amber,MT
703,879,Montana Brewing,113 North Broadway,,Billings,Montana,59101,United States,1-406-252-9200,,,Montana Brewing Company...small brewery...BIG BEER!,2010-07-22T16:00:20-04:00,"45.7822, -108.506",94,0.0,Whitetail Wheat,MT
704,879,Montana Brewing,113 North Broadway,,Billings,Montana,59101,United States,1-406-252-9200,,,Montana Brewing Company...small brewery...BIG BEER!,2010-07-22T16:00:20-04:00,"45.7822, -108.506",95,0.0,Sandbagger Gold,MT
705,1054,Revolution Brewing LLC,2323 N Milwaukee Ave,,Chicago,Illinois,60647,United States,773-227-BREW,http://revbrew.com/,,Revolution Brewing LLC is opening a brewpub in Logan Square which will include a full-service restaurant. We will also be selling our beers in kegs to select Chicago drinking establishments as brewing capacity allows.,2010-07-22T16:00:20-04:00,"41.9234, -87.6982",406,0.0,Iron Fist Pale Ale,IL
706,1138,Shmaltz Enterprises,3435 Cesar Chavez #227,,San Francisco,California,94110,United States,1-650-343-2739,,,,2010-07-22T16:00:20-04:00,"37.7481, -122.419",174,0.0,Coney Island Lager,CA
707,1142,Sierra Nevada Brewing Co.,1075 East 20th Street,,Chico,California,95928,United States,1-530-893-3520,http://www.sierranevada.com/,,,2010-07-22T16:00:20-04:00,"39.7246, -121.816",21,9.6,Bigfoot 2001,CA
708,1142,Sierra Nevada Brewing Co.,1075 East 20th Street,,Chico,California,95928,United States,1-530-893-3520,http://www.sierranevada.com/,,,2010-07-22T16:00:20-04:00,"39.7246, -121.816",22,9.6,Bigfoot 2002,CA
709,1142,Sierra Nevada Brewing Co.,1075 East 20th Street,,Chico,California,95928,United States,1-530-893-3520,http://www.sierranevada.com/,,,2010-07-22T16:00:20-04:00,"39.7246, -121.816",23,9.6,Bigfoot 2003,CA
710,1142,Sierra Nevada Brewing Co.,1075 East 20th Street,,Chico,California,95928,United States,1-530-893-3520,http://www.sierranevada.com/,,,2010-07-22T16:00:20-04:00,"39.7246, -121.816",24,9.6,Bigfoot 2004,CA
711,1142,Sierra Nevada Brewing Co.,1075 East 20th Street,,Chico,California,95928,United States,1-530-893-3520,http://www.sierranevada.com/,,,2010-07-22T16:00:20-04:00,"39.7246, -121.816",25,9.6,Bigfoot 2005,CA
712,1142,Sierra Nevada Brewing Co.,1075 East 20th Street,,Chico,California,95928,United States,1-530-893-3520,http://www.sierranevada.com/,,,2010-07-22T16:00:20-04:00,"39.7246, -121.816",70,6.7,Harvest Ale 2007,CA
713,1142,Sierra Nevada Brewing Co.,1075 East 20th Street,,Chico,California,95928,United States,1-530-893-3520,http://www.sierranevada.com/,,,2010-07-22T16:00:20-04:00,"39.7246, -121.816",404,6.8,India Pale Ale,CA
714,1142,Sierra Nevada Brewing Co.,1075 East 20th Street,,Chico,California,95928,United States,1-530-893-3520,http://www.sierranevada.com/,,,2010-07-22T16:00:20-04:00,"39.7246, -121.816",405,9.6,Bigfoot 2006,CA
715,1142,Sierra Nevada Brewing Co.,1075 East 20th Street,,Chico,California,95928,United States,1-530-893-3520,http://www.sierranevada.com/,,,2010-07-22T16:00:20-04:00,"39.7246, -121.816",463,9.6,Bigfoot 2000,CA
716,44,Anheuser-Busch,One Busch Place,,Saint Louis,Missouri,63118,United States,1-800-342-5283,http://www.anheuser-busch.com/,,"Anheuser-Busch operates 12 breweries in the United States, 14 in China and one in the United Kingdom. Anheuser-Busch's operations and resources are focused on adding to life's enjoyment not only through the responsible consumption of beer by adults, but through theme park entertainment and packaging.  In the United States, the company holds a 48.5 percent share of U.S. beer sales. Worldwide, Anheuser-Busch's beer sales volume was 128.4 million barrels in 2007.  The St. Louis-based company's subsidiaries include one of the largest U.S. manufacturers of aluminum beverage containers and one of the world's largest recyclers of aluminum beverage cans. Anheuser-Busch also has interests in malt production, rice milling, real estate development, turf farming, metalized and paper label printing, bottle production and transportation services.",2010-07-22T16:00:20-04:00,"38.5983, -90.209",239,5.2,Spring Heat Spiced Wheat,MO
717,44,Anheuser-Busch,One Busch Place,,Saint Louis,Missouri,63118,United States,1-800-342-5283,http://www.anheuser-busch.com/,,"Anheuser-Busch operates 12 breweries in the United States, 14 in China and one in the United Kingdom. Anheuser-Busch's operations and resources are focused on adding to life's enjoyment not only through the responsible consumption of beer by adults, but through theme park entertainment and packaging.  In the United States, the company holds a 48.5 percent share of U.S. beer sales. Worldwide, Anheuser-Busch's beer sales volume was 128.4 million barrels in 2007.  The St. Louis-based company's subsidiaries include one of the largest U.S. manufacturers of aluminum beverage containers and one of the world's largest recyclers of aluminum beverage cans. Anheuser-Busch also has interests in malt production, rice milling, real estate development, turf farming, metalized and paper label printing, bottle production and transportation services.",2010-07-22T16:00:20-04:00,"38.5983, -90.209",535,5.5,Green Valley Stone Mill Pale Ale,MO
718,44,Anheuser-Busch,One Busch Place,,Saint Louis,Missouri,63118,United States,1-800-342-5283,http://www.anheuser-busch.com/,,"Anheuser-Busch operates 12 breweries in the United States, 14 in China and one in the United Kingdom. Anheuser-Busch's operations and resources are focused on adding to life's enjoyment not only through the responsible consumption of beer by adults, but through theme park entertainment and packaging.  In the United States, the company holds a 48.5 percent share of U.S. beer sales. Worldwide, Anheuser-Busch's beer sales volume was 128.4 million barrels in 2007.  The St. Louis-based company's subsidiaries include one of the largest U.S. manufacturers of aluminum beverage containers and one of the world's largest recyclers of aluminum beverage cans. Anheuser-Busch also has interests in malt production, rice milling, real estate development, turf farming, metalized and paper label printing, bottle production and transportation services.",2010-07-22T16:00:20-04:00,"38.5983, -90.209",536,0.0,Green Valley Wild Hop Lager,MO
732,255,BridgePort Brewing,1313 NW Marshall Street,,Portland,Oregon,97209,United States,1-503-241-7179,http://www.bridgeportbrew.com/,,,2010-07-22T16:00:20-04:00,"45.5311, -122.685",141,0.0,Haymaker Extra Pale Ale,OR
733,255,BridgePort Brewing,1313 NW Marshall Street,,Portland,Oregon,97209,United States,1-503-241-7179,http://www.bridgeportbrew.com/,,,2010-07-22T16:00:20-04:00,"45.5311, -122.685",190,0.0,Beer Town Brown,OR
744,545,Fort Collins Brewery,1900-B East Lincoln Avenue,,Fort Collins,Colorado,80524,United States,1-970-472-1499,http://www.fortcollinsbrewery.com,,,2010-07-22T16:00:20-04:00,"40.5832, -105.042",10,0.0,Chocolate Stout,CO
745,545,Fort Collins Brewery,1900-B East Lincoln Avenue,,Fort Collins,Colorado,80524,United States,1-970-472-1499,http://www.fortcollinsbrewery.com,,,2010-07-22T16:00:20-04:00,"40.5832, -105.042",13,0.0,The Kidd Lager,CO
746,586,Goose Island Beer Company - Fulton Street,1800 West Fulton Street,,Chicago,Illinois,60612,United States,1-800-466-7363,,,,2010-07-22T16:00:20-04:00,"41.8871, -87.6721",65,13.0,Bourbon County Stout 2007,IL
747,586,Goose Island Beer Company - Fulton Street,1800 West Fulton Street,,Chicago,Illinois,60612,United States,1-800-466-7363,,,,2010-07-22T16:00:20-04:00,"41.8871, -87.6721",372,7.0,Matilda,IL
748,586,Goose Island Beer Company - Fulton Street,1800 West Fulton Street,,Chicago,Illinois,60612,United States,1-800-466-7363,,,,2010-07-22T16:00:20-04:00,"41.8871, -87.6721",407,8.0,Demolition,IL
749,586,Goose Island Beer Company - Fulton Street,1800 West Fulton Street,,Chicago,Illinois,60612,United States,1-800-466-7363,,,,2010-07-22T16:00:20-04:00,"41.8871, -87.6721",894,0.0,Pere Jacques,IL
750,590,Gottberg Brew Pub,2804 13th Street,,Columbus,Nebraska,68601,United States,1-402-562-6488,,,,2010-07-22T16:00:20-04:00,"41.4295, -97.3623",234,0.0,Stvenbru Maibock,NE
751,590,Gottberg Brew Pub,2804 13th Street,,Columbus,Nebraska,68601,United States,1-402-562-6488,,,,2010-07-22T16:00:20-04:00,"41.4295, -97.3623",235,3.9,Jack of Spades Schwarzbier,NE
752,590,Gottberg Brew Pub,2804 13th Street,,Columbus,Nebraska,68601,United States,1-402-562-6488,,,,2010-07-22T16:00:20-04:00,"41.4295, -97.3623",488,0.0,Fire in the Hole!,NE
753,590,Gottberg Brew Pub,2804 13th Street,,Columbus,Nebraska,68601,United States,1-402-562-6488,,,,2010-07-22T16:00:20-04:00,"41.4295, -97.3623",489,6.8,Cow Palace Scotch Ale,NE
754,590,Gottberg Brew Pub,2804 13th Street,,Columbus,Nebraska,68601,United States,1-402-562-6488,,,,2010-07-22T16:00:20-04:00,"41.4295, -97.3623",490,8.1,Toil & Trubbel Dubbel,NE
755,590,Gottberg Brew Pub,2804 13th Street,,Columbus,Nebraska,68601,United States,1-402-562-6488,,,,2010-07-22T16:00:20-04:00,"41.4295, -97.3623",491,8.4,Abtskelder Tripel,NE
756,590,Gottberg Brew Pub,2804 13th Street,,Columbus,Nebraska,68601,United States,1-402-562-6488,,,,2010-07-22T16:00:20-04:00,"41.4295, -97.3623",492,0.0,All-American Gold,NE
757,590,Gottberg Brew Pub,2804 13th Street,,Columbus,Nebraska,68601,United States,1-402-562-6488,,,,2010-07-22T16:00:20-04:00,"41.4295, -97.3623",656,3.5,1916 Irish Stout,NE
758,590,Gottberg Brew Pub,2804 13th Street,,Columbus,Nebraska,68601,United States,1-402-562-6488,,,,2010-07-22T16:00:20-04:00,"41.4295, -97.3623",657,7.4,Model-A-Tor Doppelbock,NE
759,590,Gottberg Brew Pub,2804 13th Street,,Columbus,Nebraska,68601,United States,1-402-562-6488,,,,2010-07-22T16:00:20-04:00,"41.4295, -97.3623",658,5.6,Wilsteraner Altbier,NE
760,590,Gottberg Brew Pub,2804 13th Street,,Columbus,Nebraska,68601,United States,1-402-562-6488,,,,2010-07-22T16:00:20-04:00,"41.4295, -97.3623",659,5.3,Eighty-Shilling Scottish Ale (80/-),NE
761,590,Gottberg Brew Pub,2804 13th Street,,Columbus,Nebraska,68601,United States,1-402-562-6488,,,,2010-07-22T16:00:20-04:00,"41.4295, -97.3623",843,4.6,Princess of Darkness Porter,NE
762,590,Gottberg Brew Pub,2804 13th Street,,Columbus,Nebraska,68601,United States,1-402-562-6488,,,,2010-07-22T16:00:20-04:00,"41.4295, -97.3623",844,5.0,Impromptu Pale Ale,NE
763,590,Gottberg Brew Pub,2804 13th Street,,Columbus,Nebraska,68601,United States,1-402-562-6488,,,,2010-07-22T16:00:20-04:00,"41.4295, -97.3623",845,6.0,Steinworthy Oktoberfest,NE
764,590,Gottberg Brew Pub,2804 13th Street,,Columbus,Nebraska,68601,United States,1-402-562-6488,,,,2010-07-22T16:00:20-04:00,"41.4295, -97.3623",846,5.6,DSB / Dusters Special Bitter,NE
765,590,Gottberg Brew Pub,2804 13th Street,,Columbus,Nebraska,68601,United States,1-402-562-6488,,,,2010-07-22T16:00:20-04:00,"41.4295, -97.3623",847,4.4,Bugeater Brown Ale,NE
766,590,Gottberg Brew Pub,2804 13th Street,,Columbus,Nebraska,68601,United States,1-402-562-6488,,,,2010-07-22T16:00:20-04:00,"41.4295, -97.3623",848,5.5,Tin Lizzie Hefeweizen,NE
767,590,Gottberg Brew Pub,2804 13th Street,,Columbus,Nebraska,68601,United States,1-402-562-6488,,,,2010-07-22T16:00:20-04:00,"41.4295, -97.3623",849,0.0,All-American Lager (discontinued),NE
768,590,Gottberg Brew Pub,2804 13th Street,,Columbus,Nebraska,68601,United States,1-402-562-6488,,,,2010-07-22T16:00:20-04:00,"41.4295, -97.3623",850,5.3,Heavenly Helles,NE
769,595,Granite City Food & Brewery - Omaha,1001 North 102nd Street,,Omaha,Nebraska,68114,United States,1-402-393-5000,,,,2010-07-22T16:00:20-04:00,"41.2672, -96.0714",164,5.1,Duke IPA,NE
770,595,Granite City Food & Brewery - Omaha,1001 North 102nd Street,,Omaha,Nebraska,68114,United States,1-402-393-5000,,,,2010-07-22T16:00:20-04:00,"41.2672, -96.0714",165,5.0,Broad Axe Stout,NE
771,595,Granite City Food & Brewery - Omaha,1001 North 102nd Street,,Omaha,Nebraska,68114,United States,1-402-393-5000,,,,2010-07-22T16:00:20-04:00,"41.2672, -96.0714",166,4.4,Northern Light Lager,NE
772,723,Jolly Pumpkin Artisan Ales,3115 Broad Street,,Dexter,Michigan,48130,United States,1-734-426-4962,http://www.jollypumpkin.com,,"Welcome to a land of open fermentation, oak barrel aging, and bottle conditioning. At Jolly Pumpkin Artisan Ales we are dedicated to more than the traditions of old world craftsmanship. Everything we do is designed to create ales of outstanding art and flavor. Focusing on traditional rustic country style beers brought to life through labor and love, we strive to create beers to lighten the spirit, and soothe the soul. Sharing our joy to the betterment of mankind is the most that we could hope for.",2010-07-22T16:00:20-04:00,"42.3375, -83.8895",43,7.5,Maracaibo Especial,MI
773,723,Jolly Pumpkin Artisan Ales,3115 Broad Street,,Dexter,Michigan,48130,United States,1-734-426-4962,http://www.jollypumpkin.com,,"Welcome to a land of open fermentation, oak barrel aging, and bottle conditioning. At Jolly Pumpkin Artisan Ales we are dedicated to more than the traditions of old world craftsmanship. Everything we do is designed to create ales of outstanding art and flavor. Focusing on traditional rustic country style beers brought to life through labor and love, we strive to create beers to lighten the spirit, and soothe the soul. Sharing our joy to the betterment of mankind is the most that we could hope for.",2010-07-22T16:00:20-04:00,"42.3375, -83.8895",45,4.8,Calabaza Blanca,MI
774,723,Jolly Pumpkin Artisan Ales,3115 Broad Street,,Dexter,Michigan,48130,United States,1-734-426-4962,http://www.jollypumpkin.com,,"Welcome to a land of open fermentation, oak barrel aging, and bottle conditioning. At Jolly Pumpkin Artisan Ales we are dedicated to more than the traditions of old world craftsmanship. Everything we do is designed to create ales of outstanding art and flavor. Focusing on traditional rustic country style beers brought to life through labor and love, we strive to create beers to lighten the spirit, and soothe the soul. Sharing our joy to the betterment of mankind is the most that we could hope for.",2010-07-22T16:00:20-04:00,"42.3375, -83.8895",157,7.0,Biere de Mars,MI
775,723,Jolly Pumpkin Artisan Ales,3115 Broad Street,,Dexter,Michigan,48130,United States,1-734-426-4962,http://www.jollypumpkin.com,,"Welcome to a land of open fermentation, oak barrel aging, and bottle conditioning. At Jolly Pumpkin Artisan Ales we are dedicated to more than the traditions of old world craftsmanship. Everything we do is designed to create ales of outstanding art and flavor. Focusing on traditional rustic country style beers brought to life through labor and love, we strive to create beers to lighten the spirit, and soothe the soul. Sharing our joy to the betterment of mankind is the most that we could hope for.",2010-07-22T16:00:20-04:00,"42.3375, -83.8895",177,6.5,Lucirnaga,MI
776,723,Jolly Pumpkin Artisan Ales,3115 Broad Street,,Dexter,Michigan,48130,United States,1-734-426-4962,http://www.jollypumpkin.com,,"Welcome to a land of open fermentation, oak barrel aging, and bottle conditioning. At Jolly Pumpkin Artisan Ales we are dedicated to more than the traditions of old world craftsmanship. Everything we do is designed to create ales of outstanding art and flavor. Focusing on traditional rustic country style beers brought to life through labor and love, we strive to create beers to lighten the spirit, and soothe the soul. Sharing our joy to the betterment of mankind is the most that we could hope for.",2010-07-22T16:00:20-04:00,"42.3375, -83.8895",395,4.5,Bam Bire,MI
777,723,Jolly Pumpkin Artisan Ales,3115 Broad Street,,Dexter,Michigan,48130,United States,1-734-426-4962,http://www.jollypumpkin.com,,"Welcome to a land of open fermentation, oak barrel aging, and bottle conditioning. At Jolly Pumpkin Artisan Ales we are dedicated to more than the traditions of old world craftsmanship. Everything we do is designed to create ales of outstanding art and flavor. Focusing on traditional rustic country style beers brought to life through labor and love, we strive to create beers to lighten the spirit, and soothe the soul. Sharing our joy to the betterment of mankind is the most that we could hope for.",2010-07-22T16:00:20-04:00,"42.3375, -83.8895",408,8.0,Oro de Calabaza,MI
778,723,Jolly Pumpkin Artisan Ales,3115 Broad Street,,Dexter,Michigan,48130,United States,1-734-426-4962,http://www.jollypumpkin.com,,"Welcome to a land of open fermentation, oak barrel aging, and bottle conditioning. At Jolly Pumpkin Artisan Ales we are dedicated to more than the traditions of old world craftsmanship. Everything we do is designed to create ales of outstanding art and flavor. Focusing on traditional rustic country style beers brought to life through labor and love, we strive to create beers to lighten the spirit, and soothe the soul. Sharing our joy to the betterment of mankind is the most that we could hope for.",2010-07-22T16:00:20-04:00,"42.3375, -83.8895",409,7.2,La Roja,MI
795,869,Minneapolis Town Hall Brewery,1430 Washington Avenue South,,Minneapolis,Minnesota,55454,United States,1-612-339-8696,http://www.townhallbrewery.com/,,,2010-07-22T16:00:20-04:00,"44.9732, -93.2479",160,0.0,WPA (Wheat Pale Ale),MN
796,869,Minneapolis Town Hall Brewery,1430 Washington Avenue South,,Minneapolis,Minnesota,55454,United States,1-612-339-8696,http://www.townhallbrewery.com/,,,2010-07-22T16:00:20-04:00,"44.9732, -93.2479",161,0.0,Smoked Hefe,MN
797,984,Pike Pub and Brewery,1415 First Avenue,,Seattle,Washington,98101,United States,1-206-622-6044,,,,2010-07-22T16:00:20-04:00,"47.6081, -122.34",183,10.0,Old Bawdy 2006,WA
798,984,Pike Pub and Brewery,1415 First Avenue,,Seattle,Washington,98101,United States,1-206-622-6044,,,,2010-07-22T16:00:20-04:00,"47.6081, -122.34",697,0.0,Auld Acquaintance Spiced Ale,WA
799,984,Pike Pub and Brewery,1415 First Avenue,,Seattle,Washington,98101,United States,1-206-622-6044,,,,2010-07-22T16:00:20-04:00,"47.6081, -122.34",698,0.0,India Pale Ale,WA
800,984,Pike Pub and Brewery,1415 First Avenue,,Seattle,Washington,98101,United States,1-206-622-6044,,,,2010-07-22T16:00:20-04:00,"47.6081, -122.34",699,0.0,Oatmeal Stout,WA
801,984,Pike Pub and Brewery,1415 First Avenue,,Seattle,Washington,98101,United States,1-206-622-6044,,,,2010-07-22T16:00:20-04:00,"47.6081, -122.34",700,0.0,Kilt Lifter Scotch Ale,WA
802,984,Pike Pub and Brewery,1415 First Avenue,,Seattle,Washington,98101,United States,1-206-622-6044,,,,2010-07-22T16:00:20-04:00,"47.6081, -122.34",701,0.0,Pale Ale,WA
803,984,Pike Pub and Brewery,1415 First Avenue,,Seattle,Washington,98101,United States,1-206-622-6044,,,,2010-07-22T16:00:20-04:00,"47.6081, -122.34",702,0.0,Weisse,WA
804,1004,Pleasanton Main Street Brewery,830 Main Street,,Pleasanton,California,94566,United States,1-925-462-8218,,,,2010-07-22T16:00:20-04:00,"37.6645, -121.873",298,0.0,Train Wreck IPA,CA
805,1004,Pleasanton Main Street Brewery,830 Main Street,,Pleasanton,California,94566,United States,1-925-462-8218,,,,2010-07-22T16:00:20-04:00,"37.6645, -121.873",299,3.8,Zone 7 Porter,CA
806,1004,Pleasanton Main Street Brewery,830 Main Street,,Pleasanton,California,94566,United States,1-925-462-8218,,,,2010-07-22T16:00:20-04:00,"37.6645, -121.873",300,5.3,Pleasanton Pale,CA
807,1004,Pleasanton Main Street Brewery,830 Main Street,,Pleasanton,California,94566,United States,1-925-462-8218,,,,2010-07-22T16:00:20-04:00,"37.6645, -121.873",301,0.0,Island Wheat,CA
808,1030,"Pyramid Alehouse, Brewery and Restaurant - Seattle",1201 First Avenue South,,Seattle,Washington,98134,United States,1-206-682-3377,,,,2010-07-22T16:00:20-04:00,,769,7.0,Snow Cap,WA
809,1030,"Pyramid Alehouse, Brewery and Restaurant - Seattle",1201 First Avenue South,,Seattle,Washington,98134,United States,1-206-682-3377,,,,2010-07-22T16:00:20-04:00,,770,5.1,DPA,WA
810,1030,"Pyramid Alehouse, Brewery and Restaurant - Seattle",1201 First Avenue South,,Seattle,Washington,98134,United States,1-206-682-3377,,,,2010-07-22T16:00:20-04:00,,771,4.9,Krystal Weizen,WA
811,1030,"Pyramid Alehouse, Brewery and Restaurant - Seattle",1201 First Avenue South,,Seattle,Washington,98134,United States,1-206-682-3377,,,,2010-07-22T16:00:20-04:00,,772,6.7,Thunder Head IPA,WA
812,1030,"Pyramid Alehouse, Brewery and Restaurant - Seattle",1201 First Avenue South,,Seattle,Washington,98134,United States,1-206-682-3377,,,,2010-07-22T16:00:20-04:00,,773,5.5,Amber Weizen,WA
813,1030,"Pyramid Alehouse, Brewery and Restaurant - Seattle",1201 First Avenue South,,Seattle,Washington,98134,United States,1-206-682-3377,,,,2010-07-22T16:00:20-04:00,,774,5.2,Hefeweizen,WA
814,1030,"Pyramid Alehouse, Brewery and Restaurant - Seattle",1201 First Avenue South,,Seattle,Washington,98134,United States,1-206-682-3377,,,,2010-07-22T16:00:20-04:00,,775,4.8,Curve Ball,WA
815,161,Boulevard Brewing Company,2501 Southwest Boulevard,,Kansas City,Missouri,64108,United States,1-816-474-7095,http://www.blvdbeer.com/,,,2010-07-22T16:00:20-04:00,"39.0821, -94.5965",71,5.9,Nut Cracker Ale,MO
816,161,Boulevard Brewing Company,2501 Southwest Boulevard,,Kansas City,Missouri,64108,United States,1-816-474-7095,http://www.blvdbeer.com/,,,2010-07-22T16:00:20-04:00,"39.0821, -94.5965",214,5.1,Lunar Ale,MO
817,161,Boulevard Brewing Company,2501 Southwest Boulevard,,Kansas City,Missouri,64108,United States,1-816-474-7095,http://www.blvdbeer.com/,,,2010-07-22T16:00:20-04:00,"39.0821, -94.5965",337,5.4,Boulevard Pale Ale,MO
818,161,Boulevard Brewing Company,2501 Southwest Boulevard,,Kansas City,Missouri,64108,United States,1-816-474-7095,http://www.blvdbeer.com/,,,2010-07-22T16:00:20-04:00,"39.0821, -94.5965",338,5.4,Bully! Porter,MO
819,161,Boulevard Brewing Company,2501 Southwest Boulevard,,Kansas City,Missouri,64108,United States,1-816-474-7095,http://www.blvdbeer.com/,,,2010-07-22T16:00:20-04:00,"39.0821, -94.5965",345,4.9,Boulevard Dry Stout,MO
836,604,Great Divide Brewing,2201 Arapahoe Street,,Denver,Colorado,80205,United States,1-303-296-9460,http://www.greatdivide.com/,,"Since 1994, Great Divide has brewed the most balanced yet assertive and flavorful beers possible.  This commitment has not gone unrewarded  Great Divide has racked up 12 Great American Beer Festival Medals and four World Beer Cup awards, and was recently honored as the 23rd Best Brewer in the World in Ratebeer.com's World's Top 100 Brewers, (2007). See for yourself what the excitement is about  and then introduce your friends to the new frontier of beer. --http://www.greatdivide.com",2010-07-22T16:00:20-04:00,"39.7539, -104.989",171,5.1,Samurai,CO
837,604,Great Divide Brewing,2201 Arapahoe Street,,Denver,Colorado,80205,United States,1-303-296-9460,http://www.greatdivide.com/,,"Since 1994, Great Divide has brewed the most balanced yet assertive and flavorful beers possible.  This commitment has not gone unrewarded  Great Divide has racked up 12 Great American Beer Festival Medals and four World Beer Cup awards, and was recently honored as the 23rd Best Brewer in the World in Ratebeer.com's World's Top 100 Brewers, (2007). See for yourself what the excitement is about  and then introduce your friends to the new frontier of beer. --http://www.greatdivide.com",2010-07-22T16:00:20-04:00,"39.7539, -104.989",215,5.4,Denver Pale Ale / DPA,CO
838,604,Great Divide Brewing,2201 Arapahoe Street,,Denver,Colorado,80205,United States,1-303-296-9460,http://www.greatdivide.com/,,"Since 1994, Great Divide has brewed the most balanced yet assertive and flavorful beers possible.  This commitment has not gone unrewarded  Great Divide has racked up 12 Great American Beer Festival Medals and four World Beer Cup awards, and was recently honored as the 23rd Best Brewer in the World in Ratebeer.com's World's Top 100 Brewers, (2007). See for yourself what the excitement is about  and then introduce your friends to the new frontier of beer. --http://www.greatdivide.com",2010-07-22T16:00:20-04:00,"39.7539, -104.989",247,5.0,Hot Shot ESB,CO
839,604,Great Divide Brewing,2201 Arapahoe Street,,Denver,Colorado,80205,United States,1-303-296-9460,http://www.greatdivide.com/,,"Since 1994, Great Divide has brewed the most balanced yet assertive and flavorful beers possible.  This commitment has not gone unrewarded  Great Divide has racked up 12 Great American Beer Festival Medals and four World Beer Cup awards, and was recently honored as the 23rd Best Brewer in the World in Ratebeer.com's World's Top 100 Brewers, (2007). See for yourself what the excitement is about  and then introduce your friends to the new frontier of beer. --http://www.greatdivide.com",2010-07-22T16:00:20-04:00,"39.7539, -104.989",414,8.1,Hibernation Ale,CO
840,604,Great Divide Brewing,2201 Arapahoe Street,,Denver,Colorado,80205,United States,1-303-296-9460,http://www.greatdivide.com/,,"Since 1994, Great Divide has brewed the most balanced yet assertive and flavorful beers possible.  This commitment has not gone unrewarded  Great Divide has racked up 12 Great American Beer Festival Medals and four World Beer Cup awards, and was recently honored as the 23rd Best Brewer in the World in Ratebeer.com's World's Top 100 Brewers, (2007). See for yourself what the excitement is about  and then introduce your friends to the new frontier of beer. --http://www.greatdivide.com",2010-07-22T16:00:20-04:00,"39.7539, -104.989",419,9.1,Hercules Double IPA,CO
841,604,Great Divide Brewing,2201 Arapahoe Street,,Denver,Colorado,80205,United States,1-303-296-9460,http://www.greatdivide.com/,,"Since 1994, Great Divide has brewed the most balanced yet assertive and flavorful beers possible.  This commitment has not gone unrewarded  Great Divide has racked up 12 Great American Beer Festival Medals and four World Beer Cup awards, and was recently honored as the 23rd Best Brewer in the World in Ratebeer.com's World's Top 100 Brewers, (2007). See for yourself what the excitement is about  and then introduce your friends to the new frontier of beer. --http://www.greatdivide.com",2010-07-22T16:00:20-04:00,"39.7539, -104.989",420,6.1,Fresh Hop Pale Ale,CO
842,604,Great Divide Brewing,2201 Arapahoe Street,,Denver,Colorado,80205,United States,1-303-296-9460,http://www.greatdivide.com/,,"Since 1994, Great Divide has brewed the most balanced yet assertive and flavorful beers possible.  This commitment has not gone unrewarded  Great Divide has racked up 12 Great American Beer Festival Medals and four World Beer Cup awards, and was recently honored as the 23rd Best Brewer in the World in Ratebeer.com's World's Top 100 Brewers, (2007). See for yourself what the excitement is about  and then introduce your friends to the new frontier of beer. --http://www.greatdivide.com",2010-07-22T16:00:20-04:00,"39.7539, -104.989",833,9.5,Yeti Imperial Stout,CO
843,604,Great Divide Brewing,2201 Arapahoe Street,,Denver,Colorado,80205,United States,1-303-296-9460,http://www.greatdivide.com/,,"Since 1994, Great Divide has brewed the most balanced yet assertive and flavorful beers possible.  This commitment has not gone unrewarded  Great Divide has racked up 12 Great American Beer Festival Medals and four World Beer Cup awards, and was recently honored as the 23rd Best Brewer in the World in Ratebeer.com's World's Top 100 Brewers, (2007). See for yourself what the excitement is about  and then introduce your friends to the new frontier of beer. --http://www.greatdivide.com",2010-07-22T16:00:20-04:00,"39.7539, -104.989",908,10.2,Old Ruffian,CO
844,604,Great Divide Brewing,2201 Arapahoe Street,,Denver,Colorado,80205,United States,1-303-296-9460,http://www.greatdivide.com/,,"Since 1994, Great Divide has brewed the most balanced yet assertive and flavorful beers possible.  This commitment has not gone unrewarded  Great Divide has racked up 12 Great American Beer Festival Medals and four World Beer Cup awards, and was recently honored as the 23rd Best Brewer in the World in Ratebeer.com's World's Top 100 Brewers, (2007). See for yourself what the excitement is about  and then introduce your friends to the new frontier of beer. --http://www.greatdivide.com",2010-07-22T16:00:20-04:00,"39.7539, -104.989",918,6.8,Titan IPA,CO
845,604,Great Divide Brewing,2201 Arapahoe Street,,Denver,Colorado,80205,United States,1-303-296-9460,http://www.greatdivide.com/,,"Since 1994, Great Divide has brewed the most balanced yet assertive and flavorful beers possible.  This commitment has not gone unrewarded  Great Divide has racked up 12 Great American Beer Festival Medals and four World Beer Cup awards, and was recently honored as the 23rd Best Brewer in the World in Ratebeer.com's World's Top 100 Brewers, (2007). See for yourself what the excitement is about  and then introduce your friends to the new frontier of beer. --http://www.greatdivide.com",2010-07-22T16:00:20-04:00,"39.7539, -104.989",932,9.5,Oak Aged Yeti Imperial Stout,CO
851,704,Issaquah Brewhouse,35-C West Sunset Way,,Issaquah,Washington,98027,United States,1-425-557-1911,,,,2010-07-22T16:00:20-04:00,"47.53, -122.037",776,0.0,Bourbon Barrel Stout,WA
852,704,Issaquah Brewhouse,35-C West Sunset Way,,Issaquah,Washington,98027,United States,1-425-557-1911,,,,2010-07-22T16:00:20-04:00,"47.53, -122.037",777,0.0,Oak Stout,WA
853,704,Issaquah Brewhouse,35-C West Sunset Way,,Issaquah,Washington,98027,United States,1-425-557-1911,,,,2010-07-22T16:00:20-04:00,"47.53, -122.037",778,0.0,Two Frog Dubbel,WA
854,704,Issaquah Brewhouse,35-C West Sunset Way,,Issaquah,Washington,98027,United States,1-425-557-1911,,,,2010-07-22T16:00:20-04:00,"47.53, -122.037",779,0.0,Farm Frog,WA
855,704,Issaquah Brewhouse,35-C West Sunset Way,,Issaquah,Washington,98027,United States,1-425-557-1911,,,,2010-07-22T16:00:20-04:00,"47.53, -122.037",780,0.0,Frosty Frog,WA
857,827,Marin Brewing,1809 Larkspur Landing Circle,,Larkspur Landing,California,94939,United States,1-415-461-4677,,,,2010-07-22T16:00:20-04:00,"37.9479, -122.511",118,9.2,Triple Dipsea Belgian,CA
858,829,Maritime Pacific Brewing,1514 NW Leary Way,,Seattle,Washington,98107,United States,1-206-782-6181,,,,2010-07-22T16:00:20-04:00,"47.6637, -122.377",664,0.0,Jolly Roger,WA
859,829,Maritime Pacific Brewing,1514 NW Leary Way,,Seattle,Washington,98107,United States,1-206-782-6181,,,,2010-07-22T16:00:20-04:00,"47.6637, -122.377",665,0.0,Firkin IPA,WA
860,829,Maritime Pacific Brewing,1514 NW Leary Way,,Seattle,Washington,98107,United States,1-206-782-6181,,,,2010-07-22T16:00:20-04:00,"47.6637, -122.377",666,5.5,Portage Bay Pilsener,WA
861,829,Maritime Pacific Brewing,1514 NW Leary Way,,Seattle,Washington,98107,United States,1-206-782-6181,,,,2010-07-22T16:00:20-04:00,"47.6637, -122.377",667,4.3,Old Seattle Lager,WA
862,829,Maritime Pacific Brewing,1514 NW Leary Way,,Seattle,Washington,98107,United States,1-206-782-6181,,,,2010-07-22T16:00:20-04:00,"47.6637, -122.377",668,5.5,Nightwatch Dark Ale,WA
863,829,Maritime Pacific Brewing,1514 NW Leary Way,,Seattle,Washington,98107,United States,1-206-782-6181,,,,2010-07-22T16:00:20-04:00,"47.6637, -122.377",669,5.0,Islander Pale Ale,WA
864,829,Maritime Pacific Brewing,1514 NW Leary Way,,Seattle,Washington,98107,United States,1-206-782-6181,,,,2010-07-22T16:00:20-04:00,"47.6637, -122.377",670,5.5,Salmon Bay E.S.B.,WA
865,829,Maritime Pacific Brewing,1514 NW Leary Way,,Seattle,Washington,98107,United States,1-206-782-6181,,,,2010-07-22T16:00:20-04:00,"47.6637, -122.377",671,5.2,Clipper Gold Hefeweizen,WA
866,829,Maritime Pacific Brewing,1514 NW Leary Way,,Seattle,Washington,98107,United States,1-206-782-6181,,,,2010-07-22T16:00:20-04:00,"47.6637, -122.377",672,5.2,Flagship Red Alt Ale,WA
867,842,McMenamins Mill Creek,13300 Bothell-Everett Highway #304,,Mill Creek,Washington,98012,United States,1-425-316-0520,,,,2010-07-22T16:00:20-04:00,"47.8774, -122.211",711,0.0,Nebraska Bitter,WA
868,842,McMenamins Mill Creek,13300 Bothell-Everett Highway #304,,Mill Creek,Washington,98012,United States,1-425-316-0520,,,,2010-07-22T16:00:20-04:00,"47.8774, -122.211",712,0.0,Irish Stout,WA
869,842,McMenamins Mill Creek,13300 Bothell-Everett Highway #304,,Mill Creek,Washington,98012,United States,1-425-316-0520,,,,2010-07-22T16:00:20-04:00,"47.8774, -122.211",713,0.0,I.M. Pale,WA
870,842,McMenamins Mill Creek,13300 Bothell-Everett Highway #304,,Mill Creek,Washington,98012,United States,1-425-316-0520,,,,2010-07-22T16:00:20-04:00,"47.8774, -122.211",714,0.0,Wheat Beer,WA
871,842,McMenamins Mill Creek,13300 Bothell-Everett Highway #304,,Mill Creek,Washington,98012,United States,1-425-316-0520,,,,2010-07-22T16:00:20-04:00,"47.8774, -122.211",715,0.0,Golden,WA
872,842,McMenamins Mill Creek,13300 Bothell-Everett Highway #304,,Mill Creek,Washington,98012,United States,1-425-316-0520,,,,2010-07-22T16:00:20-04:00,"47.8774, -122.211",716,0.0,Porter,WA
873,842,McMenamins Mill Creek,13300 Bothell-Everett Highway #304,,Mill Creek,Washington,98012,United States,1-425-316-0520,,,,2010-07-22T16:00:20-04:00,"47.8774, -122.211",717,6.45,Terminator Stout,WA
874,842,McMenamins Mill Creek,13300 Bothell-Everett Highway #304,,Mill Creek,Washington,98012,United States,1-425-316-0520,,,,2010-07-22T16:00:20-04:00,"47.8774, -122.211",718,0.0,India Pale Ale,WA
875,842,McMenamins Mill Creek,13300 Bothell-Everett Highway #304,,Mill Creek,Washington,98012,United States,1-425-316-0520,,,,2010-07-22T16:00:20-04:00,"47.8774, -122.211",719,0.0,Hammerhead Ale,WA
877,916,Nodding Head Brewpub,1516 Sansom Street,,Philadelphia,Pennsylvania,19102,United States,1-215-569-9525,http://www.noddinghead.com/,,,2010-07-22T16:00:20-04:00,"39.9502, -75.1666",951,0.0,3C Extreme,PA
878,916,Nodding Head Brewpub,1516 Sansom Street,,Philadelphia,Pennsylvania,19102,United States,1-215-569-9525,http://www.noddinghead.com/,,,2010-07-22T16:00:20-04:00,"39.9502, -75.1666",952,0.0,Bill Payer Ale / BPA,PA
879,916,Nodding Head Brewpub,1516 Sansom Street,,Philadelphia,Pennsylvania,19102,United States,1-215-569-9525,http://www.noddinghead.com/,,,2010-07-22T16:00:20-04:00,"39.9502, -75.1666",953,0.0,Ich Bin Ein Berliner Weisse,PA
880,916,Nodding Head Brewpub,1516 Sansom Street,,Philadelphia,Pennsylvania,19102,United States,1-215-569-9525,http://www.noddinghead.com/,,,2010-07-22T16:00:20-04:00,"39.9502, -75.1666",954,9.5,Wee Heavier,PA
881,916,Nodding Head Brewpub,1516 Sansom Street,,Philadelphia,Pennsylvania,19102,United States,1-215-569-9525,http://www.noddinghead.com/,,,2010-07-22T16:00:20-04:00,"39.9502, -75.1666",955,0.0,Tart,PA
882,916,Nodding Head Brewpub,1516 Sansom Street,,Philadelphia,Pennsylvania,19102,United States,1-215-569-9525,http://www.noddinghead.com/,,,2010-07-22T16:00:20-04:00,"39.9502, -75.1666",956,0.0,Spring Ale,PA
883,1075,Roots Organic Brewing,1520 SE Seventh Avenue,,Portland,Oregon,97214,United States,1-503-235-7668,,,,2010-07-22T16:00:20-04:00,"45.5118, -122.659",109,6.2,Woody Organic IPA,OR
890,1151,Skagit River Brewing,404 South Third Street,,Mount Vernon,Washington,98273,United States,1-360-336-2884,,,,2010-07-22T16:00:20-04:00,"48.4192, -122.335",147,0.0,Steelie Brown Ale,WA
891,1151,Skagit River Brewing,404 South Third Street,,Mount Vernon,Washington,98273,United States,1-360-336-2884,,,,2010-07-22T16:00:20-04:00,"48.4192, -122.335",149,0.0,Trumpeter,WA
892,1151,Skagit River Brewing,404 South Third Street,,Mount Vernon,Washington,98273,United States,1-360-336-2884,,,,2010-07-22T16:00:20-04:00,"48.4192, -122.335",739,5.3,Skibbereen Stout,WA
893,1151,Skagit River Brewing,404 South Third Street,,Mount Vernon,Washington,98273,United States,1-360-336-2884,,,,2010-07-22T16:00:20-04:00,"48.4192, -122.335",740,6.65,Red Card Lager,WA
894,1151,Skagit River Brewing,404 South Third Street,,Mount Vernon,Washington,98273,United States,1-360-336-2884,,,,2010-07-22T16:00:20-04:00,"48.4192, -122.335",741,0.0,Navidad,WA
895,1151,Skagit River Brewing,404 South Third Street,,Mount Vernon,Washington,98273,United States,1-360-336-2884,,,,2010-07-22T16:00:20-04:00,"48.4192, -122.335",742,4.5,Free Bike Amber,WA
896,1151,Skagit River Brewing,404 South Third Street,,Mount Vernon,Washington,98273,United States,1-360-336-2884,,,,2010-07-22T16:00:20-04:00,"48.4192, -122.335",743,6.0,Highwater Porter,WA
897,1151,Skagit River Brewing,404 South Third Street,,Mount Vernon,Washington,98273,United States,1-360-336-2884,,,,2010-07-22T16:00:20-04:00,"48.4192, -122.335",744,4.8,Skagit Brown Ale,WA
898,1151,Skagit River Brewing,404 South Third Street,,Mount Vernon,Washington,98273,United States,1-360-336-2884,,,,2010-07-22T16:00:20-04:00,"48.4192, -122.335",745,4.5,Yellowjacket Pale Ale,WA
899,1151,Skagit River Brewing,404 South Third Street,,Mount Vernon,Washington,98273,United States,1-360-336-2884,,,,2010-07-22T16:00:20-04:00,"48.4192, -122.335",746,4.3,Dutch Girl Lager,WA
900,1151,Skagit River Brewing,404 South Third Street,,Mount Vernon,Washington,98273,United States,1-360-336-2884,,,,2010-07-22T16:00:20-04:00,"48.4192, -122.335",747,4.0,Del Rio Lager,WA
916,1296,Twin Rivers Brewing,104 North Lewis Street,,Monroe,Washington,98272,United States,1-360-794-4056,,,,2010-07-22T16:00:20-04:00,"47.8559, -121.971",703,6.2,Imperial Stout,WA
917,1296,Twin Rivers Brewing,104 North Lewis Street,,Monroe,Washington,98272,United States,1-360-794-4056,,,,2010-07-22T16:00:20-04:00,"47.8559, -121.971",704,7.2,Imperial I.P.A.,WA
918,1296,Twin Rivers Brewing,104 North Lewis Street,,Monroe,Washington,98272,United States,1-360-794-4056,,,,2010-07-22T16:00:20-04:00,"47.8559, -121.971",705,0.0,India Pale Ale,WA
919,1296,Twin Rivers Brewing,104 North Lewis Street,,Monroe,Washington,98272,United States,1-360-794-4056,,,,2010-07-22T16:00:20-04:00,"47.8559, -121.971",706,5.0,N.W. Pale Ale,WA
920,1296,Twin Rivers Brewing,104 North Lewis Street,,Monroe,Washington,98272,United States,1-360-794-4056,,,,2010-07-22T16:00:20-04:00,"47.8559, -121.971",707,5.0,Bock,WA
921,1296,Twin Rivers Brewing,104 North Lewis Street,,Monroe,Washington,98272,United States,1-360-794-4056,,,,2010-07-22T16:00:20-04:00,"47.8559, -121.971",708,4.3,Weissbier,WA
922,1296,Twin Rivers Brewing,104 North Lewis Street,,Monroe,Washington,98272,United States,1-360-794-4056,,,,2010-07-22T16:00:20-04:00,"47.8559, -121.971",709,5.7,Saison,WA
923,1296,Twin Rivers Brewing,104 North Lewis Street,,Monroe,Washington,98272,United States,1-360-794-4056,,,,2010-07-22T16:00:20-04:00,"47.8559, -121.971",710,4.7,Pilsner,WA
924,1315,Upstream Brewing Company at Legacy,17070 Wright Plaza,,Omaha,Nebraska,68130,United States,1-402-778-0100,,,,2010-07-22T16:00:20-04:00,"41.2331, -96.1811",15,9.0,Oak-Aged Belgian Tripel,NE
925,1315,Upstream Brewing Company at Legacy,17070 Wright Plaza,,Omaha,Nebraska,68130,United States,1-402-778-0100,,,,2010-07-22T16:00:20-04:00,"41.2331, -96.1811",60,9.4,Oak Aged Ebenezer,NE
926,1315,Upstream Brewing Company at Legacy,17070 Wright Plaza,,Omaha,Nebraska,68130,United States,1-402-778-0100,,,,2010-07-22T16:00:20-04:00,"41.2331, -96.1811",113,6.0,Oak Aged IPA,NE
927,1315,Upstream Brewing Company at Legacy,17070 Wright Plaza,,Omaha,Nebraska,68130,United States,1-402-778-0100,,,,2010-07-22T16:00:20-04:00,"41.2331, -96.1811",204,6.5,Gueuze-Lambic,NE
928,1315,Upstream Brewing Company at Legacy,17070 Wright Plaza,,Omaha,Nebraska,68130,United States,1-402-778-0100,,,,2010-07-22T16:00:20-04:00,"41.2331, -96.1811",422,0.0,Espresso Stout,NE
929,1315,Upstream Brewing Company at Legacy,17070 Wright Plaza,,Omaha,Nebraska,68130,United States,1-402-778-0100,,,,2010-07-22T16:00:20-04:00,"41.2331, -96.1811",938,6.8,Double IPA,NE
930,1315,Upstream Brewing Company at Legacy,17070 Wright Plaza,,Omaha,Nebraska,68130,United States,1-402-778-0100,,,,2010-07-22T16:00:20-04:00,"41.2331, -96.1811",939,6.5,Dundee Export 90 Scotch Ale,NE
931,1315,Upstream Brewing Company at Legacy,17070 Wright Plaza,,Omaha,Nebraska,68130,United States,1-402-778-0100,,,,2010-07-22T16:00:20-04:00,"41.2331, -96.1811",940,5.9,Blackstone Stout,NE
936,1072,Rogue Ales,2320 SE OSU Drive,,Newport,Oregon,97365,United States,1-541-867-3664,http://www.rogue.com,,"Rogue Ales was founded in 1988 by Jack Joyce, Rob Strasser and Bob Woodell, three corporate types who wanted to go into the food/beverage industry. Rogue's first brewpub was located in Ashland, Oregon and was a 10bbl brewsystem. Rogue opened a second brewpub, 15bbl brewsystem, in May 1989 located in Newport, Oregon. Rogue closed its Ashland operation in 1997, after the great flood destroyed the place. In 1991, the 15bbl system, named Howard after John Maier's former boss, from the Newport brewpub was transferred across the bay to the current brewery and upgraded to a 30bbl system. In 1998 Rogue bought a 50bbl brewsystem, named Kobe. Kobe is the only brewsystem in use. Tours: We offer brewery tours every day at 3 pm (followed by a distillery tour at 4pm). Go up to the bar inside the brewery (Brewers on the Bay) and check in with the bartender and the tour will commence. Please call ahead if you have a large group and or to verify the tour time...Brewer's on the Bay phone is 541-867-3664. The view from Brewers on the Bay includes the marina (outside), and the bottling line and brew kettles (inside).",2010-07-22T16:00:20-04:00,"44.6202, -124.052",332,11.5,Old Crustacean Barleywine 2006,OR
937,1072,Rogue Ales,2320 SE OSU Drive,,Newport,Oregon,97365,United States,1-541-867-3664,http://www.rogue.com,,"Rogue Ales was founded in 1988 by Jack Joyce, Rob Strasser and Bob Woodell, three corporate types who wanted to go into the food/beverage industry. Rogue's first brewpub was located in Ashland, Oregon and was a 10bbl brewsystem. Rogue opened a second brewpub, 15bbl brewsystem, in May 1989 located in Newport, Oregon. Rogue closed its Ashland operation in 1997, after the great flood destroyed the place. In 1991, the 15bbl system, named Howard after John Maier's former boss, from the Newport brewpub was transferred across the bay to the current brewery and upgraded to a 30bbl system. In 1998 Rogue bought a 50bbl brewsystem, named Kobe. Kobe is the only brewsystem in use. Tours: We offer brewery tours every day at 3 pm (followed by a distillery tour at 4pm). Go up to the bar inside the brewery (Brewers on the Bay) and check in with the bartender and the tour will commence. Please call ahead if you have a large group and or to verify the tour time...Brewer's on the Bay phone is 541-867-3664. The view from Brewers on the Bay includes the marina (outside), and the bottling line and brew kettles (inside).",2010-07-22T16:00:20-04:00,"44.6202, -124.052",809,0.0,Old Crustacean Barleywine 2005,OR
944,1260,Three Floyds Brewing,9750 Indiana Parkway,,Munster,Indiana,46321,United States,1-219-922-3565,http://www.threefloydspub.com/,,,2010-07-22T16:00:20-04:00,"41.5354, -87.5158",102,0.0,Pride & Joy Mild Ale,IN
945,1260,Three Floyds Brewing,9750 Indiana Parkway,,Munster,Indiana,46321,United States,1-219-922-3565,http://www.threefloydspub.com/,,,2010-07-22T16:00:20-04:00,"41.5354, -87.5158",103,7.0,Robert the Bruce Scottish Ale,IN
948,1221,Surly Brewing,4811 Dusharme Drive,,Brooklyn Center,Minnesota,55429,United States,1-763-535-3330,http://www.surlybrewing.com/,,,2010-07-22T16:00:20-04:00,"45.0429, -93.3246",58,6.0,Furious Beer,MN
949,1221,Surly Brewing,4811 Dusharme Drive,,Brooklyn Center,Minnesota,55429,United States,1-763-535-3330,http://www.surlybrewing.com/,,,2010-07-22T16:00:20-04:00,"45.0429, -93.3246",59,5.1,Bender Beer,MN
950,1271,Tommyknocker Brewery and Pub,1401 Miner Street,,Idaho Springs,Colorado,80452,United States,1-303-567-2688,http://www.tommyknocker.com/,,,2010-07-22T16:00:20-04:00,"39.7418, -105.518",29,0.0,Ornery Amber Lager,CO
951,1271,Tommyknocker Brewery and Pub,1401 Miner Street,,Idaho Springs,Colorado,80452,United States,1-303-567-2688,http://www.tommyknocker.com/,,,2010-07-22T16:00:20-04:00,"39.7418, -105.518",31,0.0,Maple Nut Brown Ale Ale,CO
952,1271,Tommyknocker Brewery and Pub,1401 Miner Street,,Idaho Springs,Colorado,80452,United States,1-303-567-2688,http://www.tommyknocker.com/,,,2010-07-22T16:00:20-04:00,"39.7418, -105.518",32,0.0,Cocoa Porter,CO
961,1316,Upstream Brewing Old Market,514 South Eleventh Street,,Omaha,Nebraska,68102,United States,1-402-344-0200,http://www.upstreambrewing.com/,,"Derived from the Native American meaning of Omaha, upstream or against the current, the Upstream Brewing Company is just thata restaurant different from the rest. Since opening in 1996, the Upstream has been all about freshfrom the handcrafted beers to the locally grown produce to the lively atmosphere. Not to mention the friendly, knowledgeable staff. So stop in today, and find out why we've been named one of Omaha's Best several years running.",2010-07-22T16:00:20-04:00,"41.2553, -95.9306",217,9.0,Grand Cru,NE
963,1204,Stone Brewing Co.,1999 Citracado Parkway,,Escondido,California,92029,United States,1-760-471-4999,http://www.stonebrew.com/,,,2010-07-22T16:00:20-04:00,"33.1157, -117.12",194,8.4,Vertical Epic 07.07.07,CA
964,1204,Stone Brewing Co.,1999 Citracado Parkway,,Escondido,California,92029,United States,1-760-471-4999,http://www.stonebrew.com/,,,2010-07-22T16:00:20-04:00,"33.1157, -117.12",198,11.26,Old Guardian Barley Wine 2007,CA
965,1204,Stone Brewing Co.,1999 Citracado Parkway,,Escondido,California,92029,United States,1-760-471-4999,http://www.stonebrew.com/,,,2010-07-22T16:00:20-04:00,"33.1157, -117.12",484,10.0,Double Bastard Ale,CA
966,1204,Stone Brewing Co.,1999 Citracado Parkway,,Escondido,California,92029,United States,1-760-471-4999,http://www.stonebrew.com/,,,2010-07-22T16:00:20-04:00,"33.1157, -117.12",821,6.9,Stone IPA,CA
967,1204,Stone Brewing Co.,1999 Citracado Parkway,,Escondido,California,92029,United States,1-760-471-4999,http://www.stonebrew.com/,,,2010-07-22T16:00:20-04:00,"33.1157, -117.12",868,7.5,9th Anniversary IPA,CA
968,1204,Stone Brewing Co.,1999 Citracado Parkway,,Escondido,California,92029,United States,1-760-471-4999,http://www.stonebrew.com/,,,2010-07-22T16:00:20-04:00,"33.1157, -117.12",922,8.5,Vertical Epic 05.05.05,CA
969,1205,Stone Cellar Brewpub & Restaurant,1004 South Olde Oneida,,Appleton,Wisconsin,54915,United States,1-920-735-0507,,,,2010-07-22T16:00:20-04:00,"44.2536, -88.4037",933,0.0,Riverboat Rye,WI
970,1205,Stone Cellar Brewpub & Restaurant,1004 South Olde Oneida,,Appleton,Wisconsin,54915,United States,1-920-735-0507,,,,2010-07-22T16:00:20-04:00,"44.2536, -88.4037",934,0.0,Masterpiece Porter,WI
971,1205,Stone Cellar Brewpub & Restaurant,1004 South Olde Oneida,,Appleton,Wisconsin,54915,United States,1-920-735-0507,,,,2010-07-22T16:00:20-04:00,"44.2536, -88.4037",935,0.0,Stout,WI
972,1264,Thunderhead Brewery #2,120 East Third Street,,Grand Island,Nebraska,68801,United States,1-308-398-2500,,,,2010-07-22T16:00:20-04:00,"40.9259, -98.3397",82,0.0,Modern Monks Belgian Blonde,NE
973,1264,Thunderhead Brewery #2,120 East Third Street,,Grand Island,Nebraska,68801,United States,1-308-398-2500,,,,2010-07-22T16:00:20-04:00,"40.9259, -98.3397",83,0.0,Grand Cru,NE
974,1264,Thunderhead Brewery #2,120 East Third Street,,Grand Island,Nebraska,68801,United States,1-308-398-2500,,,,2010-07-22T16:00:20-04:00,"40.9259, -98.3397",150,0.0,Nitro Porter,NE
975,1264,Thunderhead Brewery #2,120 East Third Street,,Grand Island,Nebraska,68801,United States,1-308-398-2500,,,,2010-07-22T16:00:20-04:00,"40.9259, -98.3397",437,0.0,Imperial Porter,NE
976,1264,Thunderhead Brewery #2,120 East Third Street,,Grand Island,Nebraska,68801,United States,1-308-398-2500,,,,2010-07-22T16:00:20-04:00,"40.9259, -98.3397",438,0.0,Amber Ale,NE
978,1321,Valley Forge Brewing,,,Wayne,Pennsylvania,,United States,,,,,2010-07-22T16:00:20-04:00,"40.0439, -75.3881",965,0.0,Dunkelweizen,PA
979,1321,Valley Forge Brewing,,,Wayne,Pennsylvania,,United States,,,,,2010-07-22T16:00:20-04:00,"40.0439, -75.3881",966,6.1,Regiment Pale Ale,PA
980,1321,Valley Forge Brewing,,,Wayne,Pennsylvania,,United States,,,,,2010-07-22T16:00:20-04:00,"40.0439, -75.3881",967,5.7,Red Coat Ale,PA
981,1158,Sly Fox Brewhouse and Eatery - Royersford,312 North Lewis Road,,Royersford,Pennsylvania,19468,United States,1-610-948-8088,http://www.slyfoxbeer.com/index1.asp,,"A full production brewery and accompanying restaurant opened in 2004 by the owners of Sly Fox Brewhouse & Eatery in nearby Phoenixville. The 20bbl brewhouse packages a wide range of beers in 12oz cans, 22oz bottles and 750ml bottles. Pikeland Pils, a multiple GABF Gold Medal Winner, and O'Reilly's Stout, a nitro-poured, draught-only beer named after brewer Brian O'Reilly's grandfather are among its most popular beers, on and off premises, as are such Belgian-style delights as Incubus Tripel, Ichor Quadrupel, Saison Vos & Black Raspberry Reserve. Sly Fox is also noted for its Bock Beers (see listing for the Phoenixville pub for more details) and annual Christmas Ale.",2010-07-22T16:00:20-04:00,"40.1943, -75.534",968,7.5,Instigator Doppelbock,PA
982,1158,Sly Fox Brewhouse and Eatery - Royersford,312 North Lewis Road,,Royersford,Pennsylvania,19468,United States,1-610-948-8088,http://www.slyfoxbeer.com/index1.asp,,"A full production brewery and accompanying restaurant opened in 2004 by the owners of Sly Fox Brewhouse & Eatery in nearby Phoenixville. The 20bbl brewhouse packages a wide range of beers in 12oz cans, 22oz bottles and 750ml bottles. Pikeland Pils, a multiple GABF Gold Medal Winner, and O'Reilly's Stout, a nitro-poured, draught-only beer named after brewer Brian O'Reilly's grandfather are among its most popular beers, on and off premises, as are such Belgian-style delights as Incubus Tripel, Ichor Quadrupel, Saison Vos & Black Raspberry Reserve. Sly Fox is also noted for its Bock Beers (see listing for the Phoenixville pub for more details) and annual Christmas Ale.",2010-07-22T16:00:20-04:00,"40.1943, -75.534",969,5.1,Piketown Pils,PA
983,1158,Sly Fox Brewhouse and Eatery - Royersford,312 North Lewis Road,,Royersford,Pennsylvania,19468,United States,1-610-948-8088,http://www.slyfoxbeer.com/index1.asp,,"A full production brewery and accompanying restaurant opened in 2004 by the owners of Sly Fox Brewhouse & Eatery in nearby Phoenixville. The 20bbl brewhouse packages a wide range of beers in 12oz cans, 22oz bottles and 750ml bottles. Pikeland Pils, a multiple GABF Gold Medal Winner, and O'Reilly's Stout, a nitro-poured, draught-only beer named after brewer Brian O'Reilly's grandfather are among its most popular beers, on and off premises, as are such Belgian-style delights as Incubus Tripel, Ichor Quadrupel, Saison Vos & Black Raspberry Reserve. Sly Fox is also noted for its Bock Beers (see listing for the Phoenixville pub for more details) and annual Christmas Ale.",2010-07-22T16:00:20-04:00,"40.1943, -75.534",970,5.6,Seamus Irish Red,PA
984,1158,Sly Fox Brewhouse and Eatery - Royersford,312 North Lewis Road,,Royersford,Pennsylvania,19468,United States,1-610-948-8088,http://www.slyfoxbeer.com/index1.asp,,"A full production brewery and accompanying restaurant opened in 2004 by the owners of Sly Fox Brewhouse & Eatery in nearby Phoenixville. The 20bbl brewhouse packages a wide range of beers in 12oz cans, 22oz bottles and 750ml bottles. Pikeland Pils, a multiple GABF Gold Medal Winner, and O'Reilly's Stout, a nitro-poured, draught-only beer named after brewer Brian O'Reilly's grandfather are among its most popular beers, on and off premises, as are such Belgian-style delights as Incubus Tripel, Ichor Quadrupel, Saison Vos & Black Raspberry Reserve. Sly Fox is also noted for its Bock Beers (see listing for the Phoenixville pub for more details) and annual Christmas Ale.",2010-07-22T16:00:20-04:00,"40.1943, -75.534",971,6.6,Helles Bock,PA
985,1158,Sly Fox Brewhouse and Eatery - Royersford,312 North Lewis Road,,Royersford,Pennsylvania,19468,United States,1-610-948-8088,http://www.slyfoxbeer.com/index1.asp,,"A full production brewery and accompanying restaurant opened in 2004 by the owners of Sly Fox Brewhouse & Eatery in nearby Phoenixville. The 20bbl brewhouse packages a wide range of beers in 12oz cans, 22oz bottles and 750ml bottles. Pikeland Pils, a multiple GABF Gold Medal Winner, and O'Reilly's Stout, a nitro-poured, draught-only beer named after brewer Brian O'Reilly's grandfather are among its most popular beers, on and off premises, as are such Belgian-style delights as Incubus Tripel, Ichor Quadrupel, Saison Vos & Black Raspberry Reserve. Sly Fox is also noted for its Bock Beers (see listing for the Phoenixville pub for more details) and annual Christmas Ale.",2010-07-22T16:00:20-04:00,"40.1943, -75.534",972,5.3,Burns Scottish Ale,PA
986,1158,Sly Fox Brewhouse and Eatery - Royersford,312 North Lewis Road,,Royersford,Pennsylvania,19468,United States,1-610-948-8088,http://www.slyfoxbeer.com/index1.asp,,"A full production brewery and accompanying restaurant opened in 2004 by the owners of Sly Fox Brewhouse & Eatery in nearby Phoenixville. The 20bbl brewhouse packages a wide range of beers in 12oz cans, 22oz bottles and 750ml bottles. Pikeland Pils, a multiple GABF Gold Medal Winner, and O'Reilly's Stout, a nitro-poured, draught-only beer named after brewer Brian O'Reilly's grandfather are among its most popular beers, on and off premises, as are such Belgian-style delights as Incubus Tripel, Ichor Quadrupel, Saison Vos & Black Raspberry Reserve. Sly Fox is also noted for its Bock Beers (see listing for the Phoenixville pub for more details) and annual Christmas Ale.",2010-07-22T16:00:20-04:00,"40.1943, -75.534",973,7.2,Anniversary IPA Ahtanum,PA
987,1158,Sly Fox Brewhouse and Eatery - Royersford,312 North Lewis Road,,Royersford,Pennsylvania,19468,United States,1-610-948-8088,http://www.slyfoxbeer.com/index1.asp,,"A full production brewery and accompanying restaurant opened in 2004 by the owners of Sly Fox Brewhouse & Eatery in nearby Phoenixville. The 20bbl brewhouse packages a wide range of beers in 12oz cans, 22oz bottles and 750ml bottles. Pikeland Pils, a multiple GABF Gold Medal Winner, and O'Reilly's Stout, a nitro-poured, draught-only beer named after brewer Brian O'Reilly's grandfather are among its most popular beers, on and off premises, as are such Belgian-style delights as Incubus Tripel, Ichor Quadrupel, Saison Vos & Black Raspberry Reserve. Sly Fox is also noted for its Bock Beers (see listing for the Phoenixville pub for more details) and annual Christmas Ale.",2010-07-22T16:00:20-04:00,"40.1943, -75.534",974,7.2,Anniversary IPA Glacier,PA
988,1158,Sly Fox Brewhouse and Eatery - Royersford,312 North Lewis Road,,Royersford,Pennsylvania,19468,United States,1-610-948-8088,http://www.slyfoxbeer.com/index1.asp,,"A full production brewery and accompanying restaurant opened in 2004 by the owners of Sly Fox Brewhouse & Eatery in nearby Phoenixville. The 20bbl brewhouse packages a wide range of beers in 12oz cans, 22oz bottles and 750ml bottles. Pikeland Pils, a multiple GABF Gold Medal Winner, and O'Reilly's Stout, a nitro-poured, draught-only beer named after brewer Brian O'Reilly's grandfather are among its most popular beers, on and off premises, as are such Belgian-style delights as Incubus Tripel, Ichor Quadrupel, Saison Vos & Black Raspberry Reserve. Sly Fox is also noted for its Bock Beers (see listing for the Phoenixville pub for more details) and annual Christmas Ale.",2010-07-22T16:00:20-04:00,"40.1943, -75.534",975,7.2,Route 113 IPA,PA
989,1158,Sly Fox Brewhouse and Eatery - Royersford,312 North Lewis Road,,Royersford,Pennsylvania,19468,United States,1-610-948-8088,http://www.slyfoxbeer.com/index1.asp,,"A full production brewery and accompanying restaurant opened in 2004 by the owners of Sly Fox Brewhouse & Eatery in nearby Phoenixville. The 20bbl brewhouse packages a wide range of beers in 12oz cans, 22oz bottles and 750ml bottles. Pikeland Pils, a multiple GABF Gold Medal Winner, and O'Reilly's Stout, a nitro-poured, draught-only beer named after brewer Brian O'Reilly's grandfather are among its most popular beers, on and off premises, as are such Belgian-style delights as Incubus Tripel, Ichor Quadrupel, Saison Vos & Black Raspberry Reserve. Sly Fox is also noted for its Bock Beers (see listing for the Phoenixville pub for more details) and annual Christmas Ale.",2010-07-22T16:00:20-04:00,"40.1943, -75.534",976,4.1,Featherweight Lager,PA
990,1158,Sly Fox Brewhouse and Eatery - Royersford,312 North Lewis Road,,Royersford,Pennsylvania,19468,United States,1-610-948-8088,http://www.slyfoxbeer.com/index1.asp,,"A full production brewery and accompanying restaurant opened in 2004 by the owners of Sly Fox Brewhouse & Eatery in nearby Phoenixville. The 20bbl brewhouse packages a wide range of beers in 12oz cans, 22oz bottles and 750ml bottles. Pikeland Pils, a multiple GABF Gold Medal Winner, and O'Reilly's Stout, a nitro-poured, draught-only beer named after brewer Brian O'Reilly's grandfather are among its most popular beers, on and off premises, as are such Belgian-style delights as Incubus Tripel, Ichor Quadrupel, Saison Vos & Black Raspberry Reserve. Sly Fox is also noted for its Bock Beers (see listing for the Phoenixville pub for more details) and annual Christmas Ale.",2010-07-22T16:00:20-04:00,"40.1943, -75.534",977,5.7,Royal Weisse,PA
991,1158,Sly Fox Brewhouse and Eatery - Royersford,312 North Lewis Road,,Royersford,Pennsylvania,19468,United States,1-610-948-8088,http://www.slyfoxbeer.com/index1.asp,,"A full production brewery and accompanying restaurant opened in 2004 by the owners of Sly Fox Brewhouse & Eatery in nearby Phoenixville. The 20bbl brewhouse packages a wide range of beers in 12oz cans, 22oz bottles and 750ml bottles. Pikeland Pils, a multiple GABF Gold Medal Winner, and O'Reilly's Stout, a nitro-poured, draught-only beer named after brewer Brian O'Reilly's grandfather are among its most popular beers, on and off premises, as are such Belgian-style delights as Incubus Tripel, Ichor Quadrupel, Saison Vos & Black Raspberry Reserve. Sly Fox is also noted for its Bock Beers (see listing for the Phoenixville pub for more details) and annual Christmas Ale.",2010-07-22T16:00:20-04:00,"40.1943, -75.534",978,5.5,Phoenix Pale Ale,PA
992,1158,Sly Fox Brewhouse and Eatery - Royersford,312 North Lewis Road,,Royersford,Pennsylvania,19468,United States,1-610-948-8088,http://www.slyfoxbeer.com/index1.asp,,"A full production brewery and accompanying restaurant opened in 2004 by the owners of Sly Fox Brewhouse & Eatery in nearby Phoenixville. The 20bbl brewhouse packages a wide range of beers in 12oz cans, 22oz bottles and 750ml bottles. Pikeland Pils, a multiple GABF Gold Medal Winner, and O'Reilly's Stout, a nitro-poured, draught-only beer named after brewer Brian O'Reilly's grandfather are among its most popular beers, on and off premises, as are such Belgian-style delights as Incubus Tripel, Ichor Quadrupel, Saison Vos & Black Raspberry Reserve. Sly Fox is also noted for its Bock Beers (see listing for the Phoenixville pub for more details) and annual Christmas Ale.",2010-07-22T16:00:20-04:00,"40.1943, -75.534",979,4.7,Helles Golden Lager,PA
994,1178,Spilker Ales,300 West Fourth Street,,Cortland,Nebraska,68331,United States,1-402-798-7445,,,,2010-07-22T16:00:20-04:00,"40.5058, -96.707",653,0.0,Hopluia,NE
1002,1263,Thunderhead Brewery,18 East 21st Street,,Kearney,Nebraska,68847,United States,1-308-237-1558,,,,2010-07-22T16:00:20-04:00,"40.6966, -99.0815",838,0.0,Russian Imperial Stout,NE
1003,1265,Tied House Cafe & Brewery - San Jose,65 North San Pedro,,San Jose,California,95110,United States,1-408-295-2739,,,,2010-07-22T16:00:20-04:00,"37.3362, -121.894",253,0.0,Oatmeal Stout,CA
1004,1265,Tied House Cafe & Brewery - San Jose,65 North San Pedro,,San Jose,California,95110,United States,1-408-295-2739,,,,2010-07-22T16:00:20-04:00,"37.3362, -121.894",254,0.0,Amber Light,CA
1005,1265,Tied House Cafe & Brewery - San Jose,65 North San Pedro,,San Jose,California,95110,United States,1-408-295-2739,,,,2010-07-22T16:00:20-04:00,"37.3362, -121.894",255,0.0,New World Wheat,CA
1006,1265,Tied House Cafe & Brewery - San Jose,65 North San Pedro,,San Jose,California,95110,United States,1-408-295-2739,,,,2010-07-22T16:00:20-04:00,"37.3362, -121.894",256,0.0,Maibock,CA
1007,1265,Tied House Cafe & Brewery - San Jose,65 North San Pedro,,San Jose,California,95110,United States,1-408-295-2739,,,,2010-07-22T16:00:20-04:00,"37.3362, -121.894",257,0.0,Ironwood Dark,CA
1008,1265,Tied House Cafe & Brewery - San Jose,65 North San Pedro,,San Jose,California,95110,United States,1-408-295-2739,,,,2010-07-22T16:00:20-04:00,"37.3362, -121.894",258,0.0,Cascade Amber,CA
1009,1265,Tied House Cafe & Brewery - San Jose,65 North San Pedro,,San Jose,California,95110,United States,1-408-295-2739,,,,2010-07-22T16:00:20-04:00,"37.3362, -121.894",259,0.0,Alpine Gold,CA
